{
  "type": "FeatureCollection",
  "features": [
    {
      "type": "Feature",
      "properties": {
        "cityKey": "pakistan_karachi_karachi",
        "sampleCity": "Karachi",
        "sampleState": "Pakistan",
        "sampleCountry": "Pakistan",
        "CITY_NAME": "Karachi",
        "UC": "Karachi",
        "method": "worldpop_kmeans",
        "stationCount": 0,
        "cluster_id": "merged",
        "point_count": 52898,
        "population_sum": 16868924.522140503,
        "population_mean": 294.4237517230185,
        "area_pixels": 52898,
        "original_clusters": 8
      },
      "geometry": {
        "type": "Polygon",
        "coordinates": [
          [
            [
              67.13458234479499,
              24.781250236875003
            ],
            [
              67.07374901170499,
              24.749583570335002
            ],
            [
              67.072915678375,
              24.749583570335002
            ],
            [
              66.972915678775,
              24.797083570145002
            ],
            [
              66.969582345455,
              24.799583570135
            ],
            [
              66.91958234565499,
              24.842083569965002
            ],
            [
              66.91958234565499,
              24.842916903295002
            ],
            [
              66.92124901231499,
              24.844583569955002
            ],
            [
              66.95146772422328,
              24.859273221577084
            ],
            [
              66.90874901236499,
              24.850416903265
            ],
            [
              66.90708234570499,
              24.850416903265
            ],
            [
              66.872915679175,
              25.019583569255
            ],
            [
              66.89041567910499,
              25.051250235795003
            ],
            [
              66.891249012435,
              25.051250235795003
            ],
            [
              66.897915679075,
              25.050416902465003
            ],
            [
              66.899582345735,
              25.049583569135002
            ],
            [
              66.9935194470085,
              24.994198688615363
            ],
            [
              66.957915678835,
              25.063750235745
            ],
            [
              66.95874901216499,
              25.064583569075
            ],
            [
              67.10291567825499,
              25.067916902395
            ],
            [
              67.103749011585,
              25.067916902395
            ],
            [
              67.26208234428499,
              24.975416902765
            ],
            [
              67.262915677615,
              24.974583569435
            ],
            [
              67.26208234428499,
              24.973750236105
            ],
            [
              67.16283308333361,
              24.95153025230992
            ],
            [
              67.19511981989801,
              24.914460295513756
            ],
            [
              67.274582344235,
              24.967916902795004
            ],
            [
              67.30458234411499,
              24.984583569395
            ],
            [
              67.30624901077499,
              24.985416902725
            ],
            [
              67.307082344105,
              24.985416902725
            ],
            [
              67.43041567694499,
              24.852916903255
            ],
            [
              67.431249010275,
              24.851250236595
            ],
            [
              67.431249010275,
              24.848750236605
            ],
            [
              67.43041567694499,
              24.847916903275
            ],
            [
              67.35208234392499,
              24.777083570225003
            ],
            [
              67.32708234402499,
              24.764583570275
            ],
            [
              67.326249010695,
              24.764583570275
            ],
            [
              67.17535790365424,
              24.799115863428604
            ],
            [
              67.14393017084457,
              24.788786468728922
            ],
            [
              67.137082344785,
              24.782916903535003
            ],
            [
              67.13458234479499,
              24.781250236875003
            ]
          ]
        ]
      }
    },
    {
      "type": "Feature",
      "properties": {
        "cityKey": "pakistan_lahore_lahore",
        "sampleCity": "Lahore",
        "sampleState": "Pakistan",
        "sampleCountry": "Pakistan",
        "CITY_NAME": "Lahore",
        "UC": "Lahore",
        "method": "worldpop_kmeans",
        "stationCount": 0,
        "cluster_id": "merged",
        "point_count": 83245,
        "population_sum": 13273495.272762299,
        "population_mean": 146.98052562953663,
        "area_pixels": 83245,
        "original_clusters": 8
      },
      "geometry": {
        "type": "Polygon",
        "coordinates": [
          [
            [
              74.485415648725,
              31.167916877995
            ],
            [
              74.48291564873499,
              31.166250211335
            ],
            [
              74.477082315425,
              31.163750211345
            ],
            [
              74.43041564894499,
              31.161250211355004
            ],
            [
              74.27208231624499,
              31.161250211355004
            ],
            [
              74.27208231624499,
              31.162083544685
            ],
            [
              74.28760515879232,
              31.36959943979152
            ],
            [
              74.28742045865434,
              31.36963163522842
            ],
            [
              74.286248982855,
              31.357916877235002
            ],
            [
              74.27541564956499,
              31.251250210995003
            ],
            [
              74.267915649595,
              31.194583544555
            ],
            [
              74.237082316385,
              31.172916877975002
            ],
            [
              74.10541565024499,
              31.161250211355004
            ],
            [
              74.027082317225,
              31.161250211355004
            ],
            [
              74.01291565061499,
              31.165416878005
            ],
            [
              73.99874898400499,
              31.263750210945002
            ],
            [
              73.99874898400499,
              31.422916876975002
            ],
            [
              74.014582317275,
              31.486250210055
            ],
            [
              74.01958231725499,
              31.494583543355002
            ],
            [
              74.10541565024499,
              31.536250209855
            ],
            [
              74.135415650125,
              31.549583543135
            ],
            [
              74.13624898345499,
              31.549583543135
            ],
            [
              74.16874898332499,
              31.542916876495003
            ],
            [
              74.22910016663035,
              31.524811521503395
            ],
            [
              74.23027728496567,
              31.5275224606999
            ],
            [
              74.171248983315,
              31.549583543135
            ],
            [
              74.15874898336499,
              31.556250209775
            ],
            [
              74.154582316715,
              31.632083542805002
            ],
            [
              74.154582316715,
              31.653750209385002
            ],
            [
              74.17874898328499,
              31.781250208875
            ],
            [
              74.186248983255,
              31.813750208745002
            ],
            [
              74.200415649865,
              31.857083541905002
            ],
            [
              74.212082316485,
              31.872916875175
            ],
            [
              74.21291564981499,
              31.873750208505
            ],
            [
              74.21458231647499,
              31.874583541835
            ],
            [
              74.242915649695,
              31.879583541815002
            ],
            [
              74.387082315785,
              31.880416875145002
            ],
            [
              74.49624898201499,
              31.878750208485002
            ],
            [
              74.505415648645,
              31.876250208495
            ],
            [
              74.505415648645,
              31.875416875165
            ],
            [
              74.46194003906282,
              31.80062012749674
            ],
            [
              74.49958231533499,
              31.857083541905002
            ],
            [
              74.52541564856499,
              31.872083541845
            ],
            [
              74.526248981895,
              31.872083541845
            ],
            [
              74.551248981795,
              31.847916875275
            ],
            [
              74.627915648155,
              31.472083543445002
            ],
            [
              74.627915648155,
              31.471250210115002
            ],
            [
              74.624582314835,
              31.436250210255
            ],
            [
              74.616248981535,
              31.427916876955003
            ],
            [
              74.58458231499499,
              31.412083543685
            ],
            [
              74.583748981665,
              31.412083543685
            ],
            [
              74.4973611741493,
              31.424635618281297
            ],
            [
              74.49720699222489,
              31.424304242204936
            ],
            [
              74.57124898171499,
              31.392916877095
            ],
            [
              74.57291564837499,
              31.392083543765
            ],
            [
              74.57458231503499,
              31.390416877105
            ],
            [
              74.51374898194499,
              31.197083544545002
            ],
            [
              74.493748982025,
              31.175416877965002
            ],
            [
              74.49291564869499,
              31.174583544635002
            ],
            [
              74.485415648725,
              31.167916877995
            ]
          ]
        ]
      }
    },
    {
      "type": "Feature",
      "properties": {
        "cityKey": "pakistan_faisalabad_faisalabad",
        "sampleCity": "Faisalabad",
        "sampleState": "Pakistan",
        "sampleCountry": "Pakistan",
        "CITY_NAME": "Faisalabad",
        "UC": "Faisalabad",
        "method": "worldpop_kmeans",
        "stationCount": 0,
        "cluster_id": "merged",
        "point_count": 61109,
        "population_sum": 5929208.126781464,
        "population_mean": 88.14586519699452,
        "area_pixels": 61109,
        "original_clusters": 8
      },
      "geometry": {
        "type": "Polygon",
        "coordinates": [
          [
            [
              72.877915655155,
              31.183750211265
            ],
            [
              72.875415655165,
              31.184583544595
            ],
            [
              72.86458232187499,
              31.236250211055
            ],
            [
              72.86458232187499,
              31.237916877715
            ],
            [
              72.87458232183499,
              31.259583544295
            ],
            [
              72.90374898838499,
              31.28000021088
            ],
            [
              72.86458232187499,
              31.260416877625
            ],
            [
              72.86458232187499,
              31.537916876515002
            ],
            [
              72.867082321865,
              31.537916876515002
            ],
            [
              72.91374898834499,
              31.535416876525
            ],
            [
              72.92590694849535,
              31.533414388970826
            ],
            [
              72.91208232168499,
              31.536250209855
            ],
            [
              72.87041565518498,
              31.548750209805
            ],
            [
              72.865415655205,
              31.576250209695
            ],
            [
              72.86458232187499,
              31.582083543005
            ],
            [
              72.86458232187499,
              31.662916876015
            ],
            [
              72.86791565519499,
              31.720416875785002
            ],
            [
              73.143748987425,
              31.720416875785002
            ],
            [
              73.18374898726499,
              31.717083542465
            ],
            [
              73.18374898726499,
              31.716250209135
            ],
            [
              73.171248987315,
              31.652083542725002
            ],
            [
              73.162915654015,
              31.623750209505
            ],
            [
              73.156248987375,
              31.607916876235002
            ],
            [
              73.13422975669384,
              31.586631619909888
            ],
            [
              73.147082320745,
              31.587916876315003
            ],
            [
              73.14874898740499,
              31.587916876315003
            ],
            [
              73.161248987355,
              31.584583542995002
            ],
            [
              73.166248987335,
              31.581250209675
            ],
            [
              73.16786748443835,
              31.580094140315463
            ],
            [
              73.159582320695,
              31.596250209615
            ],
            [
              73.161248987355,
              31.612083542885003
            ],
            [
              73.162915654015,
              31.622916876175
            ],
            [
              73.171248987315,
              31.651250209395002
            ],
            [
              73.181248987275,
              31.681250209275
            ],
            [
              73.20624898717499,
              31.708750209165
            ],
            [
              73.207082320505,
              31.709583542495
            ],
            [
              73.227082320425,
              31.720416875785002
            ],
            [
              73.385415653125,
              31.720416875785002
            ],
            [
              73.398748986405,
              31.717916875795
            ],
            [
              73.400415653065,
              31.717083542465
            ],
            [
              73.40458231971499,
              31.710416875825
            ],
            [
              73.40458231971499,
              31.478750210085003
            ],
            [
              73.354582319915,
              31.445416876885
            ],
            [
              73.35190374849714,
              31.44488116260143
            ],
            [
              73.354582319915,
              31.444583543555
            ],
            [
              73.398748986405,
              31.423750210305002
            ],
            [
              73.39958231973499,
              31.422916876975002
            ],
            [
              73.400415653065,
              31.421250210315
            ],
            [
              73.40458231971499,
              31.380416877145002
            ],
            [
              73.40458231971499,
              31.308750210765
            ],
            [
              73.40291565305499,
              31.188750211245
            ],
            [
              73.38958231977499,
              31.182916877935
            ],
            [
              73.37041565318499,
              31.181250211275
            ],
            [
              73.198748987205,
              31.181250211275
            ],
            [
              73.19833818908457,
              31.182071807515843
            ],
            [
              73.169582320655,
              31.181250211275
            ],
            [
              72.92041565498499,
              31.181250211275
            ],
            [
              72.877915655155,
              31.183750211265
            ]
          ],
          [
            [
              73.29458232015499,
              31.446250210215002
            ],
            [
              73.31624898673499,
              31.447083543545002
            ],
            [
              73.31923285769082,
              31.446922253223065
            ],
            [
              73.317082320065,
              31.447083543545002
            ],
            [
              73.28771160021209,
              31.450580057813205
            ],
            [
              73.28019397866903,
              31.439535650854893
            ],
            [
              73.29458232015499,
              31.446250210215002
            ]
          ]
        ]
      }
    },
    {
      "type": "Feature",
      "properties": {
        "cityKey": "pakistan_rawalpindi_rawalpindi",
        "sampleCity": "Rawalpindi",
        "sampleState": "Pakistan",
        "sampleCountry": "Pakistan",
        "CITY_NAME": "Rawalpindi",
        "UC": "Rawalpindi",
        "method": "worldpop_kmeans",
        "stationCount": 0,
        "cluster_id": "merged",
        "point_count": 47987,
        "population_sum": 4866756.0566215515,
        "population_mean": 93.98491611464843,
        "area_pixels": 47987,
        "original_clusters": 8
      },
      "geometry": {
        "type": "Polygon",
        "coordinates": [
          [
            [
              73.118748987525,
              33.342083535965
            ],
            [
              72.87291565517499,
              33.342083535965
            ],
            [
              72.845415655285,
              33.342916869295
            ],
            [
              72.829582322015,
              33.352916869255004
            ],
            [
              72.82791565535499,
              33.354583535915005
            ],
            [
              72.82791565535499,
              33.359583535895
            ],
            [
              72.83124898867499,
              33.402916869055005
            ],
            [
              72.87124898851499,
              33.517083535265
            ],
            [
              72.981248988075,
              33.516250201935
            ],
            [
              72.98249898806999,
              33.51583353527
            ],
            [
              72.98208232140499,
              33.516250201935
            ],
            [
              72.98712736642986,
              33.5238177694723
            ],
            [
              72.98383569326695,
              33.52757968165847
            ],
            [
              72.97874898808499,
              33.522916868575
            ],
            [
              72.969582321455,
              33.522916868575
            ],
            [
              72.86791565519499,
              33.529583535215004
            ],
            [
              72.83958232197499,
              33.532083535205004
            ],
            [
              72.832915655335,
              33.532916868535004
            ],
            [
              72.82374898870499,
              33.576250201695004
            ],
            [
              72.82708232202499,
              33.641250201435
            ],
            [
              72.82743565147416,
              33.64156276210158
            ],
            [
              72.79208232216499,
              33.664583534675
            ],
            [
              72.79208232216499,
              33.747916867675
            ],
            [
              72.80041565546499,
              33.786250200855
            ],
            [
              72.80208232212499,
              33.787083534185
            ],
            [
              72.81041565542499,
              33.790416867505
            ],
            [
              72.94291565489499,
              33.790416867505
            ],
            [
              72.943748988225,
              33.789583534175
            ],
            [
              72.92286412552981,
              33.71609975802526
            ],
            [
              73.02291565457499,
              33.727916867755
            ],
            [
              73.0235462852031,
              33.72737632721662
            ],
            [
              73.03598090490209,
              33.731123746851935
            ],
            [
              73.067915654395,
              33.772083534245
            ],
            [
              73.22291565377499,
              33.765416867605
            ],
            [
              73.22458232043499,
              33.763750200945005
            ],
            [
              73.23708232038499,
              33.726250201095
            ],
            [
              73.241248987035,
              33.712916867815004
            ],
            [
              73.241248987035,
              33.647916868075
            ],
            [
              73.23458232039499,
              33.617916868195
            ],
            [
              73.23374898706498,
              33.617083534865
            ],
            [
              73.21624898713499,
              33.604583534915
            ],
            [
              73.202082320525,
              33.599583534935
            ],
            [
              73.16524222059273,
              33.60257057006464
            ],
            [
              73.165638247215,
              33.6011124720463
            ],
            [
              73.20291565385499,
              33.596250201615
            ],
            [
              73.21624898713499,
              33.593750201625
            ],
            [
              73.241248987035,
              33.564583535075
            ],
            [
              73.241248987035,
              33.372083535845
            ],
            [
              73.24041565370499,
              33.362083535885
            ],
            [
              73.23708232038499,
              33.346250202615
            ],
            [
              73.23624898705499,
              33.346250202615
            ],
            [
              73.154582320715,
              33.380416869145
            ],
            [
              73.15208232072499,
              33.382083535805
            ],
            [
              73.13624898745499,
              33.393750202425004
            ],
            [
              73.07441971940962,
              33.44083556809033
            ],
            [
              73.15374898738499,
              33.372083535845
            ],
            [
              73.151248987395,
              33.362083535885
            ],
            [
              73.118748987525,
              33.342083535965
            ]
          ]
        ]
      }
    },
    {
      "type": "Feature",
      "properties": {
        "cityKey": "pakistan_islamabad_islamabad",
        "sampleCity": "Islamabad",
        "sampleState": "Pakistan",
        "sampleCountry": "Pakistan",
        "CITY_NAME": "Islamabad",
        "UC": "Islamabad",
        "method": "worldpop_kmeans",
        "stationCount": 0,
        "cluster_id": "merged",
        "point_count": 51097,
        "population_sum": 4896166.374195099,
        "population_mean": 87.59301719552731,
        "area_pixels": 51097,
        "original_clusters": 8
      },
      "geometry": {
        "type": "Polygon",
        "coordinates": [
          [
            [
              73.257915653635,
              33.598750201605
            ],
            [
              73.26208232028499,
              33.592916868295
            ],
            [
              73.27208232024499,
              33.568750201725
            ],
            [
              73.27208232024499,
              33.515416868605
            ],
            [
              73.271248986915,
              33.472083535445
            ],
            [
              73.269582320255,
              33.466250202135
            ],
            [
              73.267915653595,
              33.462916868815
            ],
            [
              73.266248986935,
              33.460416868825
            ],
            [
              73.207082320505,
              33.460416868825
            ],
            [
              73.140415654105,
              33.461250202155
            ],
            [
              73.13458232079499,
              33.462916868815
            ],
            [
              73.09958232093499,
              33.479583535415
            ],
            [
              73.0959970496315,
              33.48245175245779
            ],
            [
              73.09541565428499,
              33.480416868745
            ],
            [
              73.084582320995,
              33.460416868825
            ],
            [
              72.91958232165499,
              33.460416868825
            ],
            [
              72.86791565519499,
              33.461250202155
            ],
            [
              72.86791565519499,
              33.462083535485
            ],
            [
              72.881248988475,
              33.507916868635
            ],
            [
              72.88208232180499,
              33.508750201965
            ],
            [
              72.8852182867046,
              33.51149741088532
            ],
            [
              72.882915655135,
              33.509583535295
            ],
            [
              72.881248988475,
              33.508750201965
            ],
            [
              72.832915655335,
              33.532916868535004
            ],
            [
              72.82374898870499,
              33.576250201695004
            ],
            [
              72.822915655375,
              33.677916867955
            ],
            [
              72.822915655375,
              33.687916867915
            ],
            [
              72.82541565536499,
              33.702083534525
            ],
            [
              72.826248988695,
              33.702916867855
            ],
            [
              72.917915654995,
              33.717083534465004
            ],
            [
              72.924582321635,
              33.717916867795005
            ],
            [
              72.97429398912094,
              33.7228266621146
            ],
            [
              73.05291565445499,
              33.796250200815
            ],
            [
              73.05458232111499,
              33.797083534145
            ],
            [
              73.055415654445,
              33.797083534145
            ],
            [
              73.08912764182033,
              33.76906934745282
            ],
            [
              73.13458232079499,
              33.858750200565
            ],
            [
              73.257915653635,
              33.893750200425
            ],
            [
              73.25874898696499,
              33.893750200425
            ],
            [
              73.271248986915,
              33.889583533775
            ],
            [
              73.27208232024499,
              33.884583533795
            ],
            [
              73.27208232024499,
              33.682916867935
            ],
            [
              73.271248986915,
              33.657916868035
            ],
            [
              73.235415653725,
              33.617916868195
            ],
            [
              73.23374898706498,
              33.616250201535
            ],
            [
              73.213748987145,
              33.607083534905
            ],
            [
              73.21458232047499,
              33.607083534905
            ],
            [
              73.257915653635,
              33.598750201605
            ]
          ]
        ]
      }
    },
    {
      "type": "Feature",
      "properties": {
        "cityKey": "pakistan_peshawar_peshawar",
        "sampleCity": "Peshawar",
        "sampleState": "Pakistan",
        "sampleCountry": "Pakistan",
        "CITY_NAME": "Peshawar",
        "UC": "Peshawar",
        "method": "worldpop_kmeans",
        "stationCount": 0,
        "cluster_id": "merged",
        "point_count": 66043,
        "population_sum": 5108232.946130753,
        "population_mean": 76.37414012646326,
        "area_pixels": 66043,
        "original_clusters": 8
      },
      "geometry": {
        "type": "Polygon",
        "coordinates": [
          [
            [
              71.775415659565,
              33.818750200725
            ],
            [
              71.77458232623499,
              33.817083534065
            ],
            [
              71.73458232639499,
              33.760416867625004
            ],
            [
              71.68958232657499,
              33.752916867655
            ],
            [
              71.65458232671499,
              33.748750201005
            ],
            [
              71.63041566014499,
              33.746250201015
            ],
            [
              71.602082326925,
              33.745416867685
            ],
            [
              71.537915660515,
              33.745416867685
            ],
            [
              71.452915660855,
              33.747916867675
            ],
            [
              71.47420125540971,
              33.855982193875896
            ],
            [
              71.470415660785,
              33.851250200595004
            ],
            [
              71.44874899420499,
              33.851250200595004
            ],
            [
              71.356248994575,
              33.875416867165
            ],
            [
              71.28291566153499,
              33.895416867085004
            ],
            [
              71.256248994975,
              34.020416866585
            ],
            [
              71.254582328315,
              34.041250199835005
            ],
            [
              71.254582328315,
              34.044583533155
            ],
            [
              71.38283232780199,
              34.05103636331787
            ],
            [
              71.38318584342558,
              34.051810095626095
            ],
            [
              71.38124899447499,
              34.052916866455
            ],
            [
              71.254582328315,
              34.163750199345
            ],
            [
              71.254582328315,
              34.168750199325004
            ],
            [
              71.262915661615,
              34.251250198995
            ],
            [
              71.264582328275,
              34.254583532315
            ],
            [
              71.437915660915,
              34.223750199105
            ],
            [
              71.441248994235,
              34.222083532445
            ],
            [
              71.44307331855201,
              34.22059704596447
            ],
            [
              71.44208232756499,
              34.222083532445
            ],
            [
              71.454582327515,
              34.271250198915
            ],
            [
              71.54708232714499,
              34.285416865525
            ],
            [
              71.59791566027499,
              34.285416865525
            ],
            [
              71.63041566014499,
              34.282916865535
            ],
            [
              71.652082326725,
              34.277916865555
            ],
            [
              71.66368239011024,
              34.268758920777174
            ],
            [
              71.67624899329499,
              34.284583532195
            ],
            [
              71.677082326625,
              34.285416865525
            ],
            [
              71.789582326175,
              34.285416865525
            ],
            [
              71.794582326155,
              34.282916865535
            ],
            [
              71.794582326155,
              34.098750199605
            ],
            [
              71.73529861262655,
              34.10584397729217
            ],
            [
              71.73246306472251,
              34.09600295809576
            ],
            [
              71.760415659625,
              34.081250199675004
            ],
            [
              71.79208232616499,
              34.052916866455
            ],
            [
              71.794582326155,
              34.017916866595
            ],
            [
              71.794582326155,
              33.942083533565004
            ],
            [
              71.78041565954499,
              33.892083533765
            ],
            [
              71.7702286824665,
              33.890220062348206
            ],
            [
              71.794582326155,
              33.875416867165
            ],
            [
              71.775415659565,
              33.818750200725
            ]
          ]
        ]
      }
    }
  ]
}