{"type": "FeatureCollection", "features": [{"type": "Feature", "geometry": {"type": "Polygon", "coordinates": [[[68.75085988257757, 24.23414960382121], [68.75388375942799, 24.08378275986655], [68.75690763627847, 23.96916475864674], [68.75388375942799, 23.94567618091105], [68.69189428759137, 23.941530693886477], [68.53918851653685, 23.94014883520066], [68.43032895621639, 23.937385073762186], [68.39706631266023, 23.944294367191333], [68.39555437423502, 23.958111843386916], [68.37892305245697, 23.967783195837853], [68.36077979315297, 23.962256797113525], [68.33961265609923, 23.941530693886477], [68.3320529648725, 23.908362004303115], [68.30937388939356, 23.904215319381535], [68.28518287638872, 23.90145078812344], [68.27459930741219, 23.893156841814857], [68.26855155461061, 23.879332415658496], [68.24738441755687, 23.869654438801376], [68.21563371242593, 23.86688916919985], [68.2020262674983, 23.85582750263717], [68.19446657627151, 23.84891348057272], [68.16725168641625, 23.843381997980885], [68.14759648778772, 23.828169202946412], [68.11735772108204, 23.825403048412], [68.07955926314952, 23.82955225773054], [68.07199957102341, 23.84753063173332], [68.05839212609578, 23.84891348057272], [68.05083243486905, 23.833701334848797], [68.04629661959336, 23.808804883738446], [68.04629661959336, 23.756230035787553], [68.04024886589252, 23.738239025410735], [68.0175697913129, 23.731318744064822], [67.98884296303237, 23.741007034347206], [67.95255644262579, 23.764532740593552], [67.92534155277048, 23.78528718505561], [67.90266247819085, 23.803271690636052], [67.89056697078911, 23.833701334848797], [67.8860311564128, 23.86412384114243], [67.86637595778427, 23.86688916919985], [67.85579238970706, 23.841999089786214], [67.84974463600622, 23.812954623656992], [67.84369688320464, 23.78943767680738], [67.82404168457612, 23.76868389424635], [67.79985067157128, 23.76868389424635], [67.75902833588907, 23.779752990108477], [67.73483732288418, 23.792204597564194], [67.70157467932802, 23.80188835526343], [67.66377622139555, 23.803271690636052], [67.6305135778394, 23.80188835526343], [67.5670121675775, 23.830935298125553], [67.51863014156783, 23.86412384114243], [67.46268842253272, 23.906979790385094], [67.41884221089936, 23.9594935096178], [67.3734840617401, 24.02303413931412], [67.34626917098552, 24.07273969488108], [67.31603040427979, 24.154159922442545], [67.30242295935216, 24.22587713692036], [67.29788714497579, 24.28239494277244], [67.29486326812537, 24.30857759887715], [67.27823194634732, 24.33062196163428], [67.26764837827011, 24.389847177405386], [67.25706480929358, 24.41050061181386], [67.23136185786353, 24.444915493755104], [67.2086827832839, 24.47244063712577], [67.18902758465538, 24.495832277837394], [67.16483657165054, 24.53159931205863], [67.16634851007575, 24.568731218570917], [67.16483657165054, 24.61959781778512], [67.16634851007575, 24.64708466622443], [67.17239626287727, 24.663573872636164], [67.18297983095448, 24.693798423758324], [67.17565532503329, 24.709958335308954], [67.17239626287727, 24.71714873882331], [67.14518137302201, 24.719895547141846], [67.1330858665196, 24.73225543274208], [67.09679934611302, 24.75971744910106], [67.08016802433491, 24.781682692202537], [67.05144119605438, 24.80089909092038], [67.02573824462434, 24.785800742710137], [66.99398753949339, 24.781682692202537], [66.95770101998613, 24.781682692202537], [66.92595031485519, 24.79678154223444], [66.88210410322182, 24.821484785694338], [66.82767432261193, 24.83520668284217], [66.77929229660225, 24.83520668284217], [66.73242220811846, 24.832462425000983], [66.70218344141273, 24.83520668284217], [66.67648048998268, 24.853042874029484], [66.67194467470705, 24.87773489395022], [66.68252824278426, 24.89830780935796], [66.68992751384377, 24.914246073097843], [66.69462374928668, 24.92436191367142], [66.70369537983794, 24.94766881486396], [66.72032670161605, 25.021673235531466], [66.72335057846647, 25.05318010297941], [66.75056546832178, 25.069615254740256], [66.7626609748242, 25.101109797878905], [66.76568485167462, 25.13533380051456], [66.75812515954851, 25.1845995165545], [66.72032670161605, 25.20922490930218], [66.69462374928668, 25.22016792920664], [66.63868203115089, 25.251623628827474], [66.61146714129558, 25.27076658980633], [66.60088357321837, 25.29127355523042], [66.61449101814605, 25.337743169311864], [66.60239551164358, 25.41697367899212], [66.56006123843548, 25.447013026430056], [66.52982247172974, 25.464760028252726], [66.48900013604748, 25.477044881616052], [66.4496897396898, 25.50161082288122], [66.42398678825975, 25.515256397264977], [66.38770026785312, 25.53026473772752], [66.34536599464496, 25.531629038949063], [66.29698396773597, 25.523442997796167], [66.26523326350434, 25.516620869357666], [66.22289898939692, 25.513891908984476], [66.18358859303919, 25.500246179917326], [66.16695727126114, 25.477044881616052], [66.16090951845956, 25.452473921234514], [66.16695727126114, 25.422435935370174], [66.19870797639203, 25.418339266244175], [66.21685123659535, 25.422435935370174], [66.24557806487587, 25.44018655966204], [66.27279295473113, 25.452473921234514], [66.29244815335966, 25.45929969102798], [66.3181511047897, 25.462029890666997], [66.35594956272217, 25.462029890666997], [66.3846763910027, 25.452473921234514], [66.41037934333207, 25.4374558644966], [66.42852260353538, 25.42107039398354], [66.45573749339064, 25.412876823706483], [66.46783299989306, 25.412876823706483], [66.50260758187449, 25.396488013111366], [66.51319114995164, 25.380096975794856], [66.5071433962508, 25.359605051531958], [66.47236881516875, 25.355506249214102], [66.44666586283938, 25.366436078762092], [66.42852260353538, 25.391024581319414], [66.40281965120602, 25.391024581319414], [66.36955700854918, 25.397853832388478], [66.3166391663645, 25.412876823706483], [66.27128101630592, 25.414242457723276], [66.2531377561026, 25.411511174401255], [66.2002199148173, 25.397853832388478], [66.17149308653677, 25.392390462649757], [66.13369462770498, 25.38556090221391], [66.09740810819767, 25.380096975794856], [66.04902608128867, 25.381462980332344], [66.02332312985862, 25.370534510559253], [65.99762017842852, 25.354139951497586], [65.94923815151952, 25.352773637593373], [65.91143969358706, 25.352773637593373], [65.87364123475521, 25.356872532541388], [65.8131637013438, 25.340476119976984], [65.78594881148854, 25.324077486087162], [65.74361453828038, 25.315877336370022], [65.73303097020317, 25.304942939165358], [65.6816250664437, 25.29810843965282], [65.60451621125418, 25.300842286042723], [65.56974163017213, 25.309043453792412], [65.56218193804608, 25.329543944097793], [65.5591580611956, 25.34184257327621], [65.53950286346645, 25.34457543131117], [65.46390594670214, 25.34457543131117], [65.36411801693299, 25.34730822909154], [65.34295087987925, 25.3391096522887], [65.28852110016868, 25.324077486087162], [65.26804989088981, 25.322989010534457], [65.26281814783931, 25.3227108331385], [65.25677039503773, 25.302209185405616], [65.24013907325968, 25.28307118508718], [65.08894523973106, 25.278969791822476], [65.0617303498758, 25.285805369622153], [65.04358708967249, 25.300842286042723], [65.01939607666765, 25.311777052868763], [64.96950211133344, 25.317244066660407], [64.8802977496415, 25.315877336370022], [64.80470083377651, 25.309043453792412], [64.75178299159182, 25.302209185405616], [64.73212779296335, 25.285805369622153], [64.70642484153325, 25.257093354075096], [64.69130545818041, 25.23247765062314], [64.69130545818041, 25.207856962229073], [64.72003228646093, 25.190072256329643], [64.73363973138856, 25.177758246046267], [64.72608004016178, 25.153126493293087], [64.6973532118813, 25.13807130624582], [64.65653087709836, 25.14217745062888], [64.62780404881784, 25.151757916694578], [64.62931598634373, 25.17228495318807], [64.64141149374552, 25.188704094318553], [64.64443536969662, 25.20512102311676], [64.63687567846983, 25.23247765062314], [64.60966078861458, 25.25299108307206], [64.58546977471042, 25.25299108307206], [64.56127876170552, 25.248888673573504], [64.53255193342505, 25.231109965252756], [64.506848981995, 25.22016792920664], [64.46451470878685, 25.214696542011836], [64.4161326818778, 25.224271308174366], [64.38287003832164, 25.237948238320598], [64.33902382668833, 25.263930164845306], [64.29215373820449, 25.295374532109008], [64.26796272519965, 25.307676630871867], [64.21504488301497, 25.32544412374739], [64.18480611720861, 25.32544412374739], [64.16212704172966, 25.336376670147274], [64.0517555438833, 25.336376670147274], [64.0351242221052, 25.335010155694192], [64.00639739382473, 25.321344164901348], [63.95045567478962, 25.315877336370022], [63.912657216857156, 25.317244066660407], [63.89149007980342, 25.330910520604107], [63.853691621870894, 25.355506249214102], [63.81891703988953, 25.369168381915358], [63.73273655504801, 25.370534510559253], [63.6737709600618, 25.370534510559253], [63.626900871578016, 25.359605051531958], [63.60119792014797, 25.3459418378456], [63.58607853679507, 25.330910520604107], [63.56491140064071, 25.303576069480073], [63.540720386736496, 25.295374532109008], [63.522577126533236, 25.285805369622153], [63.50896968160555, 25.257093354075096], [63.50594580565445, 25.22837454864657], [63.50140999037882, 25.202385021951272], [63.434884703266505, 25.198280904640114], [63.419765319913665, 25.20922490930218], [63.38952655320793, 25.22153573778411], [63.344168403149354, 25.222903531073143], [63.27915505536157, 25.22153573778411], [63.25345210393152, 25.225639070886473], [63.221701398800576, 25.24615365716562], [63.19751038489642, 25.258460747165827], [63.17331937189158, 25.262562832908486], [63.147616420461475, 25.262562832908486], [63.118889592181006, 25.24752117346344], [63.09772245512727, 25.22974226459388], [63.08109113334916, 25.217432267085485], [63.047828490692325, 25.207856962229073], [63.00549421658491, 25.20648900076685], [62.99339871008249, 25.216064411743275], [62.96618382022717, 25.23384532070503], [62.946528621598645, 25.248888673573504], [62.91024210209139, 25.248888673573504], [62.90117047154007, 25.23384532070503], [62.86941976730844, 25.224271308174366], [62.825573555675135, 25.224271308174366], [62.76056020698803, 25.225639070886473], [62.727297563431875, 25.237948238320598], [62.70159461200177, 25.248888673573504], [62.67891553742214, 25.248888673573504], [62.64565289386604, 25.258460747165827], [62.613902188735096, 25.276235452604112], [62.57307985395215, 25.280336938498976], [62.53225751826989, 25.280336938498976], [62.50655456683984, 25.278969791822476], [62.47933967698458, 25.26803206622691], [62.45817254083016, 25.257093354075096], [62.426421835699216, 25.24205101654121], [62.40525469864548, 25.23384532070503], [62.38711143844216, 25.23247765062314], [62.37199205508932, 25.227006817410768], [62.35838461016169, 25.20512102311676], [62.346289103659274, 25.191440403052184], [62.341753288383586, 25.158600645903164], [62.349312980509694, 25.143546134246776], [62.36745624071301, 25.13533380051456], [62.37199205508932, 25.117538514990542], [62.3598965485869, 25.09563306781189], [62.33116972030638, 25.08741751360742], [62.30244289202591, 25.08741751360742], [62.27220412532017, 25.101109797878905], [62.27069218689496, 25.11480054880633], [62.27825187902107, 25.13533380051456], [62.28732350867307, 25.14765209426878], [62.2858115702478, 25.164074552998272], [62.26918024846975, 25.191440403052184], [62.251036989165755, 25.199648959631816], [62.220798222460076, 25.22016792920664], [62.19509527013065, 25.23247765062314], [62.17241619555102, 25.24752117346344], [62.149737120072075, 25.258460747165827], [62.122522230216816, 25.255725945695872], [62.0953073403615, 25.22974226459388], [62.07414020420714, 25.22016792920664], [62.05448500557861, 25.202385021951272], [62.05750888242903, 25.164074552998272], [62.051461128728135, 25.139440036628457], [61.99400747216714, 25.1339650242665], [61.947137383683355, 25.1339650242665], [61.88212403589557, 25.129858603791604], [61.857933021991414, 25.128489766389634], [61.839789761788154, 25.098371463872013], [61.829206193710945, 25.073723697790456], [61.81408681035805, 25.054549783046127], [61.755121215371844, 25.039482459647843], [61.71883469586459, 25.040852292599254], [61.68859592915885, 25.050440696980615], [61.68557205230843, 25.080570797704183], [61.69615562038564, 25.090156093129224], [61.72185857181569, 25.103848070731942], [61.73697795516853, 25.123014263897232], [61.744537647294635, 25.143546134246776], [61.75058540009621, 25.175021629744492], [61.73697795516853, 25.195544749690498], [61.717322757439376, 25.20648900076685], [61.70069143566127, 25.216064411743275], [61.69464368196043, 25.22837454864657], [61.67045266895559, 25.237948238320598], [61.58880799849038, 25.24205101654121], [61.58880799849038, 25.300842286042723], [61.6069512586937, 25.315877336370022], [61.6069512586937, 25.438821219723536], [61.613849477871156, 25.50817794855351], [61.62329909167977, 25.520970020450136], [61.62802389948342, 25.555075545500074], [61.63038630338525, 25.616867068460465], [61.639835917193864, 25.70843018190743], [61.639835917193864, 25.75099370219766], [61.69653360544157, 25.765887333233877], [61.748506484986365, 25.772269745352503], [61.781311643417666, 25.77596243092148], [61.78630494381815, 25.776524497307776], [61.793392154624314, 25.812683719578047], [61.78630494381815, 25.840327445755065], [61.75323129278996, 25.844579753353003], [61.7414192741802, 25.861587455796496], [61.739056870278375, 25.89347030191294], [61.76268090749795, 25.927469180858054], [61.76268090749795, 25.96995398978487], [61.77449292520839, 26.04851043600786], [61.78630494381815, 26.08670806972168], [61.78866734682066, 26.15670468417386], [61.79102975072249, 26.20546538681822], [61.80284176933225, 26.22030155027636], [61.817016190944514, 26.25208695664776], [61.84300263116654, 26.271154027436467], [61.86898907138857, 26.29233598981415], [61.890250703807, 26.302925519497194], [61.92568675873696, 26.31139644788783], [61.95403560286081, 26.31351408330835], [61.984746849987175, 26.330453770924862], [62.01309569321171, 26.345273965121464], [62.050894152043554, 26.355858656451858], [62.119403858001704, 26.330453770924862], [62.12649106880781, 26.29868982417611], [62.143027894321904, 26.279627276077974], [62.16665193064216, 26.27750902192389], [62.19972558167029, 26.27750902192389], [62.21153759938079, 26.305043309601103], [62.218624811086215, 26.330453770924862], [62.22334961799055, 26.353741796246936], [62.24697365431075, 26.360092261748548], [62.25642326901868, 26.383374319169548], [62.25642326901868, 26.461652243556273], [62.26587288372667, 26.482799312238512], [62.28004730533894, 26.503942494050932], [62.32493297497689, 26.54833051034484], [62.376905855420944, 26.57580019971948], [62.41706671725524, 26.592701351386324], [62.4477779643816, 26.605375577021334], [62.51156286253615, 26.613824281365567], [62.5800725684943, 26.613824281365567], [62.641495063646346, 26.613824281365567], [62.68401832848315, 26.618048398814608], [62.74071601673086, 26.637054997390294], [62.790326493273085, 26.658169732747012], [62.811588125691515, 26.67294772265933], [62.86119860223374, 26.68139142947092], [62.922621097385786, 26.675058707593337], [62.98876839944211, 26.675058707593337], [63.01947964656847, 26.675058707593337], [63.07381493001509, 26.660280991074956], [63.12296645104095, 26.660280991074956], [63.1305126182628, 26.660280991074956], [63.180123094805026, 26.66239221073198], [63.20374713112528, 26.77634000838475], [63.22028395663932, 26.795320210059685], [63.22264635964183, 26.902814673258604], [63.25099520376568, 26.91124129115269], [63.26280722237544, 27.11539389591161], [63.28406885479387, 27.142726341547473], [63.31714250582206, 27.15533906254774], [63.34076654214226, 27.1700521043212], [63.32895452443182, 27.20157352100125], [63.31297691984901, 27.24419670951056], [63.31241769891773, 27.24568853279959], [63.27225683618411, 27.27718855280949], [63.21792155273755, 27.298183606388363], [63.17067348009709, 27.285587050701906], [63.137599829068904, 27.27928823686267], [63.09035175552913, 27.27508882918619], [63.05255329759666, 27.262489653774537], [62.98876839944211, 27.243588214724355], [62.898997061065586, 27.24568853279959], [62.83284975810989, 27.26458961571825], [62.80450091488535, 27.287686575575037], [62.79505130017742, 27.34016180292491], [62.802138510983525, 27.39051465542707], [62.81395052959334, 27.424070493258682], [62.83757456591354, 27.451327105361656], [62.858836198331915, 27.48696020624857], [62.86119860223374, 27.602164748004782], [62.85174898752581, 27.671229422899614], [62.8493865845233, 27.729795543529576], [62.83993696981537, 27.823853753148228], [62.80922572178969, 27.857277060587933], [62.79883688211646, 27.894006831650017], [62.79268889627559, 27.91574305429856], [62.79268889627559, 27.949138012409378], [62.78087687856515, 27.980436409812512], [62.78560168546949, 28.05968502554356], [62.80450091488535, 28.103455272343012], [62.81395052959334, 28.118041389198822], [62.811588125691515, 28.26587405694221], [62.75016563053947, 28.27627709691052], [62.68638073238492, 28.259631745708532], [62.665119099966546, 28.25547000073999], [62.634407851940864, 28.25547000073999], [62.58715977930041, 28.284598798096113], [62.56117333907838, 28.319958769481673], [62.51392526643792, 28.36778001693426], [62.499750844825655, 28.390643434546917], [62.4477779643816, 28.43220065213842], [62.400529891741144, 28.450896078990922], [62.3154833602689, 28.450896078990922], [62.27059769063095, 28.465434681065744], [62.218624811086215, 28.469588200834835], [62.150115105128066, 28.498658262568824], [62.10050462858578, 28.513190291498802], [62.04853174814173, 28.517341932584145], [61.984746849987175, 28.538097683761123], [61.92332435483519, 28.56507404822878], [61.85717705277881, 28.616932239031655], [61.78866734682066, 28.670837604272094], [61.70598321925024, 28.74750128785422], [61.66818476131772, 28.790988101619632], [61.63038630338525, 28.830317690409117], [61.6091246700675, 28.875838656428925], [61.57605101903937, 28.923407440800815], [61.547702175814834, 28.99781913024873], [61.52171573559281, 29.072177294746382], [61.493366891468895, 29.10933627804684], [61.4532060296346, 29.12997436192734], [61.41540757170213, 29.15679767886985], [61.368159498162356, 29.20217502675615], [61.337448251035994, 29.272264155366543], [61.33036104022989, 29.315530512023543], [61.32799863632806, 29.364955319932108], [61.30673700390963, 29.416413996808558], [61.24058970185331, 29.482243094443277], [61.19097922531108, 29.527475813358137], [61.11538230854677, 29.601449373789592], [61.032698180976354, 29.689735617604697], [60.93583963089429, 29.76359008981086], [60.88150434744773, 29.835340894866476], [60.87688104972074, 29.860737626240507], [60.990174915240175, 29.83943938691823], [61.122469519352876, 29.808696603265673], [61.257126527367404, 29.76974217476163], [61.39650834228621, 29.736926690314533], [61.50754131308116, 29.704100466163652], [61.635111110289586, 29.669210843805445], [61.76976811830406, 29.630202232047395], [61.91151233712469, 29.599395284464833], [62.12649106880781, 29.54391906351401], [62.3154833602689, 29.494581293791725], [62.464314789895695, 29.439047565692647], [62.50683805563182, 29.42464496899015], [62.64858227445245, 29.4308177599317], [62.799776107081755, 29.447276703257273], [62.910809078776026, 29.459619159096974], [62.99585561024827, 29.4760734304445], [63.080902141720514, 29.478130027079146], [63.26516962537795, 29.49869369385891], [63.35257856075202, 29.508973961978825], [63.527396430600845, 29.51102989041715], [63.640791805297624, 29.52130890578144], [63.704576703452176, 29.519253185985804], [63.78017362021643, 29.506917991272303], [63.84632092227281, 29.50280592575291], [63.93609226064939, 29.488412381626176], [64.02586359992523, 29.46990339142843], [64.11563493830181, 29.43699017675533], [64.16760781784654, 29.46373297739507], [64.25501675322062, 29.51514162138875], [64.34242568769537, 29.55213968629755], [64.43455942997377, 29.580906597361604], [64.51488115454168, 29.591178508981045], [64.62118931843236, 29.605557427433382], [64.68261181268508, 29.60966531290393], [64.77710795886526, 29.61377303199987], [64.87160410504549, 29.605557427433382], [64.94247621400615, 29.59528697991027], [65.04642197399494, 29.572688316412723], [65.07949562502313, 29.56446936546888], [65.13383090936901, 29.572688316412723], [65.21179022913583, 29.597341153771254], [65.22599084080474, 29.601456377709724], [65.32518560473193, 29.630202232047395], [65.51890270309735, 29.671263509503433], [65.69844538074977, 29.720514920926917], [65.93232334184881, 29.779994810312303], [66.0693427528658, 29.81279618709442], [66.15202688043621, 29.83329158633768], [66.22998620110235, 29.851733851336235], [66.27250946593915, 29.870172710602162], [66.30403875348571, 29.879936786753376], [66.30558311696734, 29.880415048915438], [66.3244823463832, 29.900896568921553], [66.35519359350957, 29.929563625560945], [66.37645522682732, 29.947988088479576], [66.38118003373165, 29.96640913937034], [66.37881763072915, 29.980734262176497], [66.36700561211939, 29.990965228562516], [66.35046878660529, 30.00528680983848], [66.33156955718937, 30.025742626321176], [66.31963984700138, 30.030906628837897], [66.29849590616118, 30.040059186682186], [66.27959667764463, 30.05232887837508], [66.26069744822871, 30.080952246848767], [66.27014706293664, 30.11774155213095], [66.2772342737428, 30.146345987177597], [66.300858310063, 30.18106879608814], [66.31975753947893, 30.201488263772433], [66.3339319610912, 30.221903497448523], [66.35046878660529, 30.250477705381854], [66.35991840131322, 30.274963271537786], [66.36464320821756, 30.3320725048423], [66.37173041902366, 30.395261755925333], [66.36464320821756, 30.466555356444587], [66.35283119050712, 30.499129353137164], [66.32920715418686, 30.521517650818964], [66.31267032867277, 30.54390079178819], [66.31030792477094, 30.57848277226219], [66.31975753947893, 30.613052423030922], [66.3339319610912, 30.637447101902296], [66.3410191718973, 30.678091231525173], [66.35519359350957, 30.706531950389262], [66.36464320821756, 30.718718265035932], [66.36700561211939, 30.757298098028855], [66.37645522682732, 30.797891754101215], [66.39062964843959, 30.80803749083759], [66.40007926314752, 30.848609724159473], [66.40480407095117, 30.885110070073722], [66.42134089646527, 30.901327983399767], [66.43551531807753, 30.937808244754763], [66.4544145474934, 30.958069043251783], [66.48748819852159, 30.972249046056675], [66.52764906035588, 30.978325544788106], [66.57725953689817, 30.98845218442085], [66.6056083801227, 30.99452765162988], [66.64813164585883, 31.037045087061188], [66.70719173710904, 31.091682473467415], [66.73081577342924, 31.111910575312834], [66.73317817733107, 31.174590300202226], [66.75207740674699, 31.1988422917384], [66.79696307548562, 31.231168612441536], [66.8512983598315, 31.265503213702402], [66.88909681776397, 31.287713067004518], [66.93398248740192, 31.309917688950236], [66.96469373452828, 31.324045178542235], [66.99068017475031, 31.334134945071696], [67.05918988070846, 31.338170548432117], [67.07336430232073, 31.338170548432117], [67.07100189841896, 31.267522507357853], [67.09698833864098, 31.26348387687949], [67.1395116043771, 31.251366948525913], [67.14423641128138, 31.241268320076983], [67.1725852554053, 31.237228566345323], [67.23400774965796, 31.237228566345323], [67.32614149193637, 31.23318863994382], [67.35065958297344, 31.23318863994382], [67.41355042731044, 31.23318863994382], [67.44965435296609, 31.234332004718283], [67.47733532546494, 31.23520862517796], [67.53167060981087, 31.25338654525291], [67.60962992957764, 31.265503213702402], [67.640341176704, 31.277618327224047], [67.67577723163402, 31.299825327876647], [67.72302530427442, 31.317990799535835], [67.77027337781419, 31.33009916814217], [67.79389741413439, 31.338170548432117], [67.81279664355031, 31.356328623167485], [67.81279664355031, 31.38053393539286], [67.79625981803622, 31.41481411957602], [67.76082376310626, 31.416830210745673], [67.71830049737014, 31.41481411957602], [67.68050203943761, 31.41481411957602], [67.65924040611992, 31.41481411957602], [67.6214419481874, 31.422878226149294], [67.6001803148697, 31.439004358264583], [67.5978179118672, 31.465203405412865], [67.60254271877153, 31.479307549503858], [67.58364348935561, 31.505495320053058], [67.57655627854945, 31.515565586582625], [67.57655627854945, 31.5336893314975], [67.60254271877153, 31.545769875079714], [67.63325396589784, 31.549796374603034], [67.68050203943761, 31.54174320108791], [67.74664934149399, 31.54174320108791], [67.76791097391236, 31.54375655921791], [67.78208539552463, 31.559861865732557], [67.80570943184483, 31.57998958794917], [67.83169587206692, 31.59608863788037], [67.8624071200926, 31.620231994910682], [67.87894394560664, 31.64436909086089], [67.88581309240033, 31.645622160334483], [67.91201759663483, 31.65040238526194], [67.98761451339914, 31.652413397060684], [68.0254129713316, 31.656435289357148], [68.04903700765186, 31.680562986492703], [68.06793623706773, 31.700664612182152], [68.10100988809592, 31.72076188335427], [68.12699632831794, 31.744872857596363], [68.14117074993021, 31.78102755178014], [68.14117074993021, 31.805122831953156], [68.16006997934613, 31.83322605144116], [68.1813316117645, 31.84125397199324], [68.20495564808476, 31.84125397199324], [68.23094208830679, 31.821182862099477], [68.25692852852882, 31.805122831953156], [68.27346535404291, 31.785043868279956], [68.30890140897293, 31.76897755636918], [68.33488784919496, 31.766969071665358], [68.36559909632132, 31.766969071665358], [68.39867274734945, 31.766969071665358], [68.44828322389174, 31.766969071665358], [68.47663206801559, 31.78102755178014], [68.48844408572603, 31.805122831953156], [68.51206812204623, 31.82519743301515], [68.54277937007191, 31.83924705750576], [68.58766503881054, 31.831218962485195], [68.6183762859369, 31.815160677923018], [68.63727551535283, 31.797091770069187], [68.66326195557485, 31.77098599790554], [68.69633560660304, 31.732818155133828], [68.72232204682507, 31.702674534901917], [68.7553956978532, 31.660457007185187], [68.7672077155637, 31.64436909086089], [68.80264377049366, 31.61822028793597], [68.84516703622978, 31.61419674268558], [68.89477751277207, 31.61419674268558], [68.93021356770203, 31.620231994910682], [68.95856241092656, 31.634312728749478], [68.98691125505042, 31.648391331195057], [69.02470971298294, 31.664478551444063], [69.07432018952517, 31.70468441445422], [69.09321941894109, 31.738845702866968], [69.12629306996928, 31.760943354951905], [69.16645393180357, 31.805122831953156], [69.1924403720256, 31.83924705750576], [69.21842681224763, 31.869346190974], [69.24205084856789, 31.89141264467787], [69.27276209569419, 31.915479108773923], [69.30583574672238, 31.925504944297813], [69.30563572131155, 31.92737195305324], [69.3011109398181, 31.969605636191204], [69.28693651820583, 32.02570316007285], [69.26567488488809, 32.05774347568092], [69.25150046327582, 32.08977257404513], [69.24677565637148, 32.14179591814718], [69.24677565637148, 32.21577799246046], [69.25150046327582, 32.299684754647785], [69.25150046327582, 32.38750383663279], [69.26803728878991, 32.42340524665485], [69.33182218694441, 32.465272171873266], [69.40978150761055, 32.50911189399875], [69.46884159886076, 32.5429734086959], [69.46908015752331, 32.54309908355589], [69.50664005679323, 32.562885984300806], [69.52317688230733, 32.59075616696356], [69.52317688230733, 32.64050279816564], [69.50900246069506, 32.67431471435265], [69.50664005679323, 32.72202740464104], [69.52553928620915, 32.751834880775164], [69.54680091862753, 32.77368735878463], [69.57987456965571, 32.78560463134869], [69.60822341377957, 32.791562668682275], [69.6342098540016, 32.799506097928145], [69.63657225790342, 32.92452144640765], [69.62476023929366, 32.94038379747434], [69.54916332252935, 32.94038379747434], [69.50427765379072, 32.95029632291704], [69.49010323127914, 32.96417198974558], [69.4782912135687, 32.98993530547], [69.4782912135687, 33.013710155399394], [69.49010323127914, 33.041439380123336], [69.51608967150122, 33.07311923756282], [69.54916332252935, 33.090934146293876], [69.5869617813612, 33.10874544604553], [69.62476023929366, 33.11863905334968], [69.66019629422368, 33.112703022426615], [69.69090754134999, 33.104787691598744], [69.72634359628, 33.098850725380714], [69.78067887972657, 33.090934146293876], [69.82320214546269, 33.086975589651786], [69.85155098958654, 33.086975589651786], [69.89407425442334, 33.08895489045591], [69.94132232796312, 33.1028087469262], [70.00038241921334, 33.12457468227581], [70.0310936663397, 33.138422924278586], [70.08779135368809, 33.17797728782165], [70.13267702332604, 33.20170134044457], [70.18937471067443, 33.233323412845266], [70.22481076560439, 33.255056957312775], [70.25315960882892, 33.270859776857264], [70.27519635252969, 33.29112434171503], [70.27678364514918, 33.29258398546261], [70.28623325985711, 33.306405665988734], [70.29804527846687, 33.34193707063935], [70.28623325985711, 33.365616623908124], [70.27205883824485, 33.409012403799466], [70.22481076560439, 33.434645179331596], [70.19173711457626, 33.45829948593257], [70.14921384884013, 33.505588740328164], [70.14448904103648, 33.5154374184022], [70.14448904103648, 33.53710056393993], [70.14921384884013, 33.56072689622931], [70.16575067435417, 33.57844240469325], [70.1704754812585, 33.60008975633724], [70.16811307735668, 33.6197644522677], [70.1468514449383, 33.63156711433089], [70.13503942632855, 33.64730148197788], [70.12086500471622, 33.682693293860495], [70.12086500471622, 33.71021019044798], [70.09251616149169, 33.72200044816219], [70.0547177026599, 33.72200044816219], [70.02164405163171, 33.72396533283387], [69.97675838289314, 33.743611714509086], [69.94840953876923, 33.773072849132745], [69.92951030935336, 33.79467124618111], [69.89171185142084, 33.853548267838335], [69.86808781510064, 33.89669897617688], [69.87045021810314, 33.92414715646618], [69.87281262200497, 33.99272891880463], [69.88934944751907, 34.012313551229454], [69.92006069464537, 34.03580914817371], [69.94132232796312, 34.05538384219062], [69.98148318979742, 34.05734106283984], [70.03581847324398, 34.05146926509457], [70.09724096839602, 34.039724448324705], [70.13503942632855, 34.022104173568835], [70.1704754812585, 34.00839698573236], [70.19882432538236, 33.99860478238486], [70.23898518721666, 33.98489380120799], [70.29332047066322, 33.96922139954802], [70.33820614030117, 33.96922139954802], [70.36891738742753, 33.94962683590978], [70.38545421294162, 33.947667131333105], [70.40945245176931, 33.94600813756557], [70.41380305706548, 33.94570738089095], [70.48939997382979, 33.94570738089095], [70.7445395673472, 33.939827861566584], [70.84376052043172, 33.943747586382074], [70.88392138226601, 33.957465202756964], [70.92880705190396, 33.975098889102526], [70.98786714315418, 34.002521799341594], [71.01621598637871, 34.01818805953138], [71.04456483050257, 34.03385143019938], [71.06346405901917, 34.05146926509457], [71.08472569233686, 34.082780822277186], [71.0894504992412, 34.104300804738386], [71.12016174726688, 34.119948263701474], [71.12252415026938, 34.1531895024936], [71.13906097578348, 34.16882791337753], [71.1414233796853, 34.21572576213424], [71.14378578358708, 34.27235918662723], [71.14344807736694, 34.281564965450855], [71.1414233796853, 34.33675774617308], [71.12724895807304, 34.35626270945653], [71.09653771004736, 34.36016315730393], [71.065826462921, 34.369913482821005], [71.03747761969646, 34.3991576524038], [71.00440396866827, 34.430340171261946], [70.99022954615668, 34.45371942920832], [70.97369272064259, 34.475144668092014], [70.97369272064259, 34.554953910394715], [71.02330319718487, 34.55689952169564], [71.08472569233686, 34.55689952169564], [71.08472569233686, 34.6482919231338], [71.08708809623869, 34.67549574413334], [71.10362492175278, 34.70269063216699], [71.12528487109995, 34.716305686258465], [71.14378578358708, 34.72793502737966], [71.19339626012936, 34.75123070503304], [71.23591952586548, 34.784221669694375], [71.28553000240777, 34.83271383207773], [71.29497961621638, 34.854041342534], [71.31151644173048, 34.87342519141953], [71.33986528585433, 34.89667977994793], [71.37057653298069, 34.908304605573164], [71.40837499181248, 34.92380181300331], [71.44617344974495, 34.9412326743485], [71.48160950467496, 34.95285119122957], [71.48369088212854, 34.95894205842933], [71.48459968572695, 34.96160154707377], [71.49814633018906, 35.00124394884921], [71.51940796260743, 35.0167235907212], [71.52885757731542, 35.05927749995669], [71.53594478812153, 35.086345718480175], [71.55248161363562, 35.10567466285545], [71.57374324695331, 35.123066794896715], [71.58555526466381, 35.16170268263272], [71.58907653135691, 35.166500015363454], [71.5997296871754, 35.18101374848578], [71.60917930188333, 35.202250622568215], [71.59736728327357, 35.225411789522525], [71.57374324695331, 35.24084889615966], [71.54775680673129, 35.25049559639473], [71.53594478812153, 35.26592792853114], [71.52885757731542, 35.290999200652664], [71.54775680673129, 35.3199179451571], [71.56901843914972, 35.34689944565292], [71.59500487937174, 35.35846018918642], [71.61626651268949, 35.37772441564931], [71.64225295291152, 35.395058287809775], [71.64934016371762, 35.43356466597663], [71.63989054900969, 35.46435651753933], [71.61862891569194, 35.47974802495145], [71.59264247636924, 35.50090653570811], [71.59736728327357, 35.545129052463835], [71.5831928616613, 35.56819199456493], [71.55720642143928, 35.579720976741726], [71.51704555960492, 35.59701133970162], [71.50759594489699, 35.61429796777702], [71.50995834879882, 35.63734099439142], [71.52885757731542, 35.66997391286583], [71.54303199982701, 35.69300088568235], [71.53830719202335, 35.71985728688435], [71.50287113709334, 35.767792635821536], [71.47215988996703, 35.83485361490244], [71.4438110467425, 35.86357670020459], [71.40365018400882, 35.901857960976145], [71.3611269182727, 35.9324696441588], [71.3138788456323, 35.96306947877349], [71.26663077299185, 35.986011577172576], [71.24064433276982, 35.99556881644776], [71.2028458748373, 36.01850146656949], [71.1886714523257, 36.031875764954634], [71.20993308564346, 36.06816598607145], [71.25245635137958, 36.1101653346625], [71.28553000240777, 36.140696218255925], [71.32569086424206, 36.16549381588692], [71.36821412997818, 36.19219015125452], [71.43199902813268, 36.230311988307676], [71.46507267916087, 36.25698622283596], [71.51232075180133, 36.287459914043836], [71.55248161363562, 36.3064999296281], [71.58083045775948, 36.32172859679736], [71.61154170488584, 36.33695428810995], [71.61626651268949, 36.36168969042694], [71.63280333820353, 36.38831902540278], [71.64225295291152, 36.42824593310337], [71.6469777598158, 36.45675258756194], [71.67296420003788, 36.45865265809374], [71.71312506187218, 36.45865265809374], [71.7391115020942, 36.443450785325524], [71.74856111680214, 36.420642390034345], [71.7792723639285, 36.41874138780486], [71.80762120805235, 36.420642390034345], [71.83360764737506, 36.43584873153378], [71.85014447288916, 36.451052094478655], [71.88085572091484, 36.47385155230734], [71.91629177494553, 36.489047466167676], [71.93991581216505, 36.5004424457623], [71.97771427009752, 36.52132888641904], [72.01551272892937, 36.54220969012516], [72.05331118686183, 36.55739218789921], [72.08619584536206, 36.57636611680289], [72.11945848891821, 36.59336279715541], [72.16935245425242, 36.624918129967796], [72.18598377513115, 36.64433037854417], [72.19959122095815, 36.677077456059806], [72.21319866588578, 36.70253777220046], [72.23738967889062, 36.71829469574368], [72.2736761992972, 36.72920144239271], [72.31147465722972, 36.73041320690402], [72.36590443694024, 36.73404838802276], [72.39765514207119, 36.743741361075024], [72.42335809350129, 36.754644493348735], [72.45057298425587, 36.76433486466232], [72.48081175006229, 36.76554607519125], [72.52314602416976, 36.77039072575144], [72.55338479087544, 36.77886812746215], [72.59420712565839, 36.798241524426885], [72.62293395393885, 36.81397880317928], [72.6728279183738, 36.820030740526306], [72.71667413090648, 36.82124107061895], [72.76354421849095, 36.822451381825886], [72.84216501210568, 36.81882039154789], [72.90113060709189, 36.81518922860005], [72.96009620207815, 36.81518922860005], [72.99033496878383, 36.82971284617099], [73.03266924199198, 36.840603750362845], [73.07953933047577, 36.83818368373005], [73.19142276674734, 36.836973621635366], [73.25643611543444, 36.8418137549009], [73.31086589514501, 36.843023740553235], [73.3486643539768, 36.850283252470206], [73.39553444246059, 36.85512254397025], [73.44845228374595, 36.85512254397025], [73.4998581866061, 36.85512254397025], [73.56184765844273, 36.85512254397025], [73.66012365068599, 36.85391274987359], [73.69489823176804, 36.85512254397025], [73.70215755482735, 36.857514180335215], [73.7206011840974, 36.863590566651396], [73.75991158045514, 36.879314405035814], [73.78410259345998, 36.88777974683791], [73.82643686666813, 36.892616663228466], [73.87481889357713, 36.892616663228466], [73.91564122836007, 36.88898900493865], [73.93076061171291, 36.879314405035814], [73.94436805664054, 36.86600982929025], [73.96251131684386, 36.85391274987359], [73.98216651547239, 36.83576353975559], [74.0033336516268, 36.82366167414699], [74.05322761696101, 36.81761002278438], [74.08800219894238, 36.82366167414699], [74.0923771740674, 36.825136147715114], [74.1167290272229, 36.8333433202381], [74.159063300431, 36.84665358239698], [74.1938378815131, 36.87205765133962], [74.19988563521395, 36.886570469851335], [74.20442145048963, 36.90228957780181], [74.22105277226768, 36.907125574185955], [74.25129153897342, 36.90954345816414], [74.29513775060678, 36.91437899589397], [74.32235264046204, 36.91800544729364], [74.35107946874257, 36.92525783388197], [74.37980629702304, 36.94338578222812], [74.41004506372877, 36.95426048063672], [74.43574801515882, 36.956676869941646], [74.46901065871498, 36.956676869941646], [74.56275083478323, 36.9615094174257], [74.58996572553787, 36.9615094174257], [74.61566867696791, 36.96634165914031], [74.65497907332565, 36.988082948569286], [74.6776581488046, 36.998951263590016], [74.7305759900899, 37.003781127497064], [74.78198189384938, 37.00015875812022], [74.813732598081, 36.988082948569286], [74.83187585828426, 36.9808365424725], [74.85909074813958, 36.97479734312293], [74.88781757642005, 36.96754967168005], [74.90293695977294, 36.95909318190485], [74.90596083662336, 36.94459415809399], [74.90747277504857, 36.937343611518486], [74.9271279736771, 36.92888376817143], [74.93922348017952, 36.92888376817143], [74.96492643160957, 36.938552083611796], [74.9860935686633, 36.95426048063672], [75.00272489044141, 36.96996563830362], [75.01784427379425, 36.979628740374096], [75.03598753309825, 36.9856675566125], [75.06169048542762, 36.989290615769335], [75.1176322035634, 36.989290615769335], [75.16450229204719, 36.989290615769335], [75.19322912032771, 36.9856675566125], [75.22800370140976, 36.96996563830362], [75.24765890003829, 36.95063575413678], [75.25975440654071, 36.93613512053946], [75.27940960516918, 36.921631726922726], [75.31116031030012, 36.91679664964573], [75.33686326173023, 36.915587832212736], [75.3655900900107, 36.915587832212736], [75.38373335021402, 36.91437899589397], [75.41548405534496, 36.90833452561793], [75.4306034386978, 36.901080530142394], [75.44118700677501, 36.88415185832167], [75.44421088362543, 36.870848125240855], [75.45479445170264, 36.857542074607125], [75.46386608135464, 36.836973621635366], [75.46537801977985, 36.82366167414699], [75.48049740313269, 36.8163996351351], [75.489569033684, 36.79945219985916], [75.489569033684, 36.77644610840122], [75.4880570952588, 36.75585585676242], [75.4880570952588, 36.72920144239271], [75.49561678648558, 36.717082739676755], [75.507712292988, 36.709810600378944], [75.53341524531737, 36.70496212500211], [75.54551075181979, 36.70496212500211], [75.56667788797421, 36.71223472295418], [75.58179727132705, 36.720718551220216], [75.58935696345316, 36.72920144239271], [75.60598828523126, 36.74010663950986], [75.64681062001415, 36.747375910869664], [75.69065683164752, 36.75101028799446], [75.72391947520367, 36.75101028799446], [75.77078956368746, 36.74131823225065], [75.79800445354277, 36.717082739676755], [75.82370740497282, 36.70253777220046], [75.84941035640287, 36.679502611056705], [75.8690655550314, 36.66131208338601], [75.90232819858755, 36.64069095442409], [75.92349533474197, 36.611569372328745], [75.9371027796696, 36.592148872472535], [75.95222216302244, 36.571509234563564], [75.96431766952486, 36.54964948733402], [75.9854848065786, 36.52656859926151], [76.0006041899315, 36.50226548666291], [76.01421163485912, 36.4828175017264], [76.02630714136154, 36.46093268229748], [76.03840264786396, 36.4341761795871], [76.0535220312168, 36.414711109330256], [76.06259366176812, 36.40010910415191], [76.06410560019333, 36.39037290968207], [76.0535220312168, 36.36237455833924], [76.04898621684049, 36.34898048026503], [76.03991458628917, 36.300255317029325], [76.04142652471438, 36.2783190554801], [76.06259366176812, 36.25881497982749], [76.0671294770438, 36.25149969555457], [76.06410560019333, 36.21735264790641], [76.05805784649249, 36.202713633827216], [76.02933101821196, 36.160000871043394], [76.02025938855996, 36.144130199449194], [75.9930444987047, 36.1050502507685], [75.98699674500381, 36.084281116780176], [75.99079718644106, 36.05765752397559], [75.9915325602795, 36.05250594289498], [76.00967581958344, 36.02316362220347], [76.03537877191286, 36.00848836274781], [76.0504981552657, 36.00604222117164], [76.08073692197144, 35.99870333868819], [76.1079518118267, 35.99870333868819], [76.13970251695764, 35.99992653358271], [76.17145322118927, 35.98524694838801], [76.18808454296732, 35.97178826211865], [76.20471586474542, 35.95832728077943], [76.22134718652347, 35.9436399569185], [76.22739494022437, 35.928949903615205], [76.23797850830158, 35.917930571738566], [76.23797850830158, 35.90201104897079], [76.24402626200242, 35.88486336525216], [76.25460983007963, 35.87138758017272], [76.27880084308453, 35.86158556881901], [76.30601573293978, 35.85790950272144], [76.41638723168546, 35.86158556881901], [76.47384088824646, 35.8603602326387], [76.5055915933774, 35.86648672558198], [76.52524679110655, 35.87873829233837], [76.53885423693356, 35.88853818129206], [76.56758106521403, 35.899561606882685], [76.58421238699214, 35.90568506911069], [76.6114272768474, 35.92405261213838], [76.63561828985223, 35.93017417859551], [76.66434511813276, 35.919155017590015], [76.67341674778476, 35.895887302557014], [76.66888093340839, 35.86281088701287], [76.66585705655797, 35.837075238031844], [76.66736899498318, 35.82359132757773], [76.68400031676128, 35.80520048401519], [76.71423908346696, 35.795390292428124], [76.73843009647186, 35.78925830822442], [76.77622855440433, 35.77331293354507], [76.82914639658901, 35.74877534340743], [76.86694485452148, 35.72423018637403], [76.90020749807763, 35.70336085531926], [76.91230300458005, 35.692310173076066], [76.94707758656142, 35.68125796018677], [76.98487604449389, 35.67388896750191], [77.00453124312241, 35.66406258542003], [77.01890021327426, 35.65148916569251], [77.02418644175094, 35.64686350634577], [77.03477000982815, 35.6284318119786], [77.06803265338431, 35.625973931551755], [77.10885498816725, 35.624744963009675], [77.11641467939398, 35.624744963009675], [77.13002212522093, 35.61122506258664], [77.1345579395973, 35.59893226011576], [77.14967732295014, 35.59893226011576], [77.16026089102735, 35.59032617531278], [77.16479670630304, 35.579259849362586], [77.17084446000388, 35.56450236938889], [77.17840415123067, 35.54728187385945], [77.1889877202072, 35.537439929908885], [77.21620261006245, 35.53128810216424], [77.24039362306729, 35.53128810216424], [77.28423983470066, 35.527596779068176], [77.29482340277787, 35.5202136229604], [77.3099427861307, 35.51159908183223], [77.34471736811213, 35.50913761490904], [77.34925318338776, 35.49806007890959], [77.36134868989018, 35.489443161772556], [77.36890838111697, 35.48698101586126], [77.37495613481781, 35.4734378634667], [77.40368296309833, 35.46235540547764], [77.58965137770895, 35.46851251494064], [77.62593789811558, 35.47466915315897], [77.63954534304321, 35.4832876549014], [77.65920054167174, 35.494367227865325], [77.69397512275378, 35.49313623944596], [77.71514225980752, 35.49682914714748], [77.73026164316036, 35.51036835781349], [77.74991684178889, 35.51775241953857], [77.8028346830742, 35.504214454433566], [77.8088824367751, 35.49190523214082], [77.81493018957667, 35.470975226525525], [77.79678692937335, 35.43525852466121], [77.7710839779433, 35.41308156406296], [77.7605004098661, 35.39952597134658], [77.7453810265132, 35.38103739935656], [77.73328552001078, 35.35637937740637], [77.71211838295704, 35.34774729050508], [77.67885573940089, 35.335414137252656], [77.63198565181642, 35.319378223326396], [77.60174688511074, 35.30704074073765], [77.57302005683022, 35.30333912939733], [77.53673353642364, 35.28359434030659], [77.52463802992122, 35.273720139472914], [77.50195895444227, 35.252733466676204], [77.4959112016407, 35.23791607206914], [77.46869631178544, 35.20950849951771], [77.4475291747317, 35.18479817929261], [77.40821877837396, 35.176147792086965], [77.3734441963926, 35.172440201154416], [77.33110992318444, 35.15884425585779], [77.31296666298118, 35.13288204786829], [77.30087115647876, 35.11804278264833], [77.27516820504866, 35.101963861343165], [77.24341749991777, 35.09701586249213], [77.21469067163724, 35.09330466617746], [77.1844519049315, 35.090830441471724], [77.16177282945256, 35.0846445519046], [77.13909375487293, 35.07722086515088], [77.10885498816725, 35.07227136533129], [77.07861622146152, 35.07103394316198], [77.05442520845668, 35.06484655262636], [77.03325807140294, 35.05742106453056], [77.00604318154762, 35.04751936242866], [76.98789992134436, 35.02895043691319], [76.95766115463863, 35.000469889773626], [76.92893432635816, 34.9942771545671], [76.90625525177848, 34.98560653711206], [76.88660005315, 34.97445725140108], [76.85182547116864, 34.948436348258895], [76.8185628285118, 34.93356355181652], [76.80041956830848, 34.90876956406419], [76.78530018495564, 34.87156454087091], [76.76715692475233, 34.861640355717896], [76.70667939134091, 34.852955711536936], [76.64166604355313, 34.854196431520165], [76.56909300363924, 34.854196431520165], [76.54943780501077, 34.854196431520165], [76.53814403781718, 34.85221043616275], [76.52827066795703, 34.8504742167118], [76.52071097673024, 34.84178839351961], [76.4995438396765, 34.81076011648622], [76.4798886419473, 34.798345532320525], [76.42848273818788, 34.7809619735163], [76.39370815620651, 34.77226882084943], [76.37102908162689, 34.75860630054041], [76.35590969827399, 34.73500207718416], [76.34532613019678, 34.71760517603809], [76.32869480841873, 34.69523235209141], [76.298456041713, 34.68653017562718], [76.1820367901658, 34.685286933045575], [76.15179802346006, 34.68901660503235], [76.14423833133401, 34.69771852069323], [76.13214282483153, 34.71139110981193], [76.1079518118267, 34.715119605485484], [76.0656175386186, 34.715119605485484], [76.03689071033807, 34.708905352200304], [76.01723551170954, 34.70144763240239], [76.008353026571, 34.69414420029466], [75.9930444987047, 34.681557092885555], [75.98699674500381, 34.67036656426558], [75.95373410144771, 34.63056577389142], [75.92198339631676, 34.606925015577076], [75.89476850646145, 34.579543094638154], [75.8116118984704, 34.57456359343513], [75.74357467293288, 34.57207373131769], [75.71484784465235, 34.57331867181932], [75.68158520199552, 34.58327752403858], [75.66344194179226, 34.58576705070885], [75.64983449686457, 34.59572441095287], [75.63925092878736, 34.606925015577076], [75.58784502502795, 34.61190257694244], [75.55458238147179, 34.61190257694244], [75.49472734708945, 34.61190257694244], [75.47444965033117, 34.61190257694244], [75.42001986972127, 34.61065821470487], [75.36105427473507, 34.60816943357253], [75.31569612467649, 34.60816943357253], [75.27336185146834, 34.60319164827598], [75.23707533196108, 34.58701178616508], [75.19625299717814, 34.58576705070885], [75.16299035362198, 34.59572441095287], [75.13577546376672, 34.60070264411178], [75.07227405350483, 34.601947155636765], [75.02993978029667, 34.601947155636765], [75.01935621221946, 34.61687983973286], [74.98911744551378, 34.62434517498991], [74.92259215840147, 34.62807758990891], [74.88025788519332, 34.62932169134302], [74.853042995338, 34.62932169134302], [74.83489973513474, 34.639273829223896], [74.81826841335663, 34.646737149999524], [74.77442220172327, 34.65046855767787], [74.74267149659232, 34.6479809708452], [74.71243272988664, 34.64922477370442], [74.6882417168818, 34.66166177437145], [74.67009845667849, 34.67036656426558], [74.64439550524844, 34.672853479304706], [74.61113286169228, 34.67907043954921], [74.59147766396308, 34.69398923991156], [74.57787021813613, 34.69771852069323], [74.54460757547929, 34.70144763240239], [74.52344043842555, 34.70144763240239], [74.51890462314992, 34.71014824044897], [74.50076136384592, 34.72506143893429], [74.46901065871498, 34.72878931857224], [74.44179576885972, 34.72878931857224], [74.42970026145798, 34.744941519335725], [74.39038986510025, 34.753637550732435], [74.31328100991072, 34.75239531719018], [74.29816162655789, 34.73500207718416], [74.25885123020015, 34.72257609231286], [74.23163634034489, 34.70517657683763], [74.20593338891484, 34.6927461097452], [74.16964686850821, 34.67534031880075], [74.14394391707816, 34.6653925102562], [74.1167290272229, 34.6653925102562], [74.05473955538622, 34.66414895021393], [74.0033336516268, 34.646737149999524], [73.98065457704718, 34.63678590694411], [73.94739193349102, 34.613146920294184], [73.93378448856333, 34.58452229636691], [73.91715316678528, 34.55339738807908], [73.90808153713328, 34.51603212278428], [73.88389052322913, 34.49485103005105], [73.85818757179908, 34.47241812509645], [73.83853237406987, 34.44873240337779], [73.82492492824292, 34.417556744548165], [73.80829360736413, 34.39011254735624], [73.7961980999624, 34.35766689111421], [73.8022458536633, 34.336445630161734], [73.81585329859092, 34.31521899845808], [73.83248462036897, 34.30273023641132], [73.86574726392513, 34.29148876209672], [73.89749796905608, 34.29148876209672], [73.94285611821533, 34.286492068554196], [73.95646356404228, 34.278996471110304], [73.97158294739518, 34.254006319636005], [73.9836784538976, 34.234008852526586], [73.99577396040002, 34.22400833741489], [74.00182171320154, 34.17648967675723], [74.00182171320154, 34.14896663510217], [73.97309488492107, 34.13395028527748], [73.94436805664054, 34.1239379027121], [73.91715316678528, 34.11392433484025], [73.89749796905608, 34.09514569911477], [73.88540246165434, 34.07385820759026], [73.88389052322913, 34.058828520819645], [73.91715316678528, 34.031267172542016], [73.92773673486249, 34.01497671180584], [73.94134418068944, 34.008710317627106], [73.99123814512433, 33.998683124126956], [74.10160964387, 33.99492262158179], [74.17267074535869, 33.99492262158179], [74.21198114171636, 33.996176141615706], [74.24977960054821, 33.99742964186453], [74.26641092232626, 33.98740111736771], [74.27548255197826, 33.97611761233799], [74.2906019353311, 33.96734051785069], [74.2921138737563, 33.93849511395837], [74.27245867512784, 33.90211088850674], [74.26036316862536, 33.892071126980966], [74.24675572369773, 33.87324338827182], [74.22407664821878, 33.84813327533044], [74.19232594398716, 33.82803986854515], [74.13789616337732, 33.821759711141794], [74.09556189016917, 33.821759711141794], [74.07439475401475, 33.823015778955096], [74.0426440488838, 33.80919801047986], [74.01845303497964, 33.79412153558047], [74.00030977567565, 33.770245019991705], [73.9867023298487, 33.746361848520564], [73.9867023298487, 33.72247202476416], [73.97158294739518, 33.70863803341854], [73.9685590705447, 33.665864337069536], [73.97611876177149, 33.64069339758231], [73.99728589882523, 33.620551346467494], [74.02298885025527, 33.611737718820734], [74.05473955538622, 33.60040458650252], [74.06985893873906, 33.58781047067674], [74.08195444524154, 33.58781047067674], [74.10463351982116, 33.58277230939461], [74.11219321194721, 33.56639625388408], [74.12126484159921, 33.55505716535595], [74.14394391707816, 33.53993606429799], [74.15301554673016, 33.5298538610669], [74.15755136200579, 33.51346777271959], [74.159063300431, 33.473119562318004], [74.16057523885627, 33.43527604475372], [74.14092004022774, 33.41003786025908], [74.13487228652684, 33.399940532229834], [74.13336034900095, 33.37216682973548], [74.12277678002442, 33.3443842563284], [74.10463351982116, 33.329226388287225], [74.08497832209196, 33.31280238811979], [74.04717986326011, 33.2862647732008], [74.02903660395617, 33.27362497631168], [74.01240528217807, 33.26856854530217], [73.98821426827391, 33.259719086866426], [73.97914263862191, 33.24707544717421], [73.97914263862191, 33.19521740386017], [73.9851903923228, 33.17370627522445], [74.00484559005201, 33.15472148251047], [74.03810823360817, 33.12180477217254], [74.06985893873906, 33.10154219931309], [74.10160964387, 33.073673532907264], [74.13033647215053, 33.05086532827232], [74.15755136200579, 33.02931882030737], [74.19988563521395, 33.02298060986732], [74.2422199084221, 33.024248287928174], [74.26338704547584, 33.021712912920634], [74.28757805848068, 33.01157068084228], [74.30874519553441, 32.996355146472865], [74.31781682518641, 32.97860037270908], [74.32688845483835, 32.94688653978204], [74.32688845483835, 32.92023812389033], [74.32840039326362, 32.81864684657478], [74.33747202381488, 32.80339811912796], [74.33796001664149, 32.79765509710512], [74.33898396224015, 32.78560463134869], [74.35561528311888, 32.77543532518018], [74.3737585433222, 32.77289281675013], [74.39946149565156, 32.77543532518018], [74.40512813555506, 32.77900862664683], [74.40550924845309, 32.77924895067861], [74.42516444708161, 32.790688847812135], [74.43423607673361, 32.79323084812518], [74.45237933693693, 32.78433353136745], [74.46296290501414, 32.76780758315351], [74.47959422679219, 32.75763624271849], [74.50378523979703, 32.748735367343386], [74.53251206807755, 32.74492043423072], [74.55821502040692, 32.75255013767878], [74.56879858848413, 32.76272205817651], [74.60054929361507, 32.770350236374384], [74.60962092326707, 32.77289281675013], [74.6202044922436, 32.78179127744556], [74.62625224504512, 32.80085641019525], [74.63985968997275, 32.81610557381322], [74.65346713490044, 32.82881121096864], [74.67009845667849, 32.822458619469785], [74.6716103951037, 32.80212727455415], [74.6625387654517, 32.78052012350497], [74.65649101175086, 32.75763624271849], [74.65044325894928, 32.739833602538795], [74.6377807748629, 32.72401488028254], [74.64959279347272, 32.6941981015612], [74.66376721508499, 32.67033750577133], [74.66376721508499, 32.64050279816564], [74.6306935640568, 32.61662786448443], [74.61888154544704, 32.59672722198377], [74.62360635325064, 32.572840616001656], [74.6377807748629, 32.56487699967386], [74.65668000427883, 32.55293024913175], [74.65668000427883, 32.5330154647919], [74.66849202198927, 32.52504831412847], [74.68266644450085, 32.50911189399875], [74.68739125140519, 32.495165208607546], [74.72282730633515, 32.495165208607546], [74.7795249936836, 32.495165208607546], [74.80078662610197, 32.495165208607546], [74.83149787412765, 32.495165208607546], [74.86457152515584, 32.495165208607546], [74.88583315757421, 32.48520196589806], [74.90709479089196, 32.47922349147103], [74.91230923458357, 32.47922349147103], [74.92363161640606, 32.47922349147103], [74.9354436341165, 32.47324461954361], [74.95198045963059, 32.465272171873266], [74.98032930375444, 32.4612856840871], [75.00631574397647, 32.47324461954361], [75.02049016558874, 32.48918739518217], [75.04411420190894, 32.50313500777446], [75.07718785293713, 32.49715772494909], [75.09608708235305, 32.47922349147103], [75.11026150396532, 32.4612856840871], [75.12443592557759, 32.43536921022093], [75.14569755889528, 32.43337532601055], [75.15987198050755, 32.43337532601055], [75.17404640211981, 32.43536921022093], [75.20948245704983, 32.43337532601055], [75.24491851197979, 32.41143969668468], [75.27326735520433, 32.39348839677217], [75.29925379542635, 32.37752868869808], [75.32287783174661, 32.35557948770327], [75.3394146572607, 32.33562104487538], [75.34177706116247, 32.32564017185649], [75.36540109748273, 32.30767182889184], [75.38902513380293, 32.291696976234505], [75.39611234550841, 32.26573183645513], [75.38193792299683, 32.245753595052406], [75.35595148277474, 32.227769420422476], [75.33232744645454, 32.20978168537653], [75.32287783174661, 32.18579250452052], [75.31342821793794, 32.16779646963141], [75.28744177771591, 32.14979687792362], [75.27799216300798, 32.12979316322395], [75.22129447565959, 32.097778095183], [75.15750957660572, 32.09377542229794], [75.11262390786709, 32.087771084268184], [75.0748254490353, 32.069755702263876], [75.05356381661687, 32.05774347568092], [74.99214132146489, 32.04973444808638], [74.94961805572876, 32.065751801804254], [74.93780603801832, 32.07776297707977], [74.93331064546999, 32.07776297707977], [74.89764517618397, 32.07776297707977], [74.87165873596194, 32.05974562286224], [74.85039710264425, 32.03571696356704], [74.80551143390562, 32.003668939869726], [74.78424980058787, 31.97561772637704], [74.78046995542417, 31.955575893912453], [74.7456953734428, 31.94659573430573], [74.70033722338422, 31.942746825705512], [74.6867297784566, 31.950444481927377], [74.68647378643612, 31.95036093670791], [74.66707457982807, 31.944029812925578], [74.65800295017607, 31.922216591222764], [74.6232283681947, 31.89141264467787], [74.59903735518986, 31.878574623719942], [74.57787021813613, 31.863166637130632], [74.5400717602036, 31.841334247277757], [74.50983299349792, 31.809218404805563], [74.4916897332946, 31.77966196452809], [74.4916897332946, 31.744953217417105], [74.4901777948694, 31.71537624202], [74.50378523979703, 31.697368244349036], [74.51285687034834, 31.68964946035436], [74.51330153383878, 31.68883850479324], [74.53402400650276, 31.651045914037752], [74.5491433898556, 31.639461721581256], [74.5551911435565, 31.6072758381095], [74.55670308198171, 31.580231094589408], [74.56879858848413, 31.555755276185096], [74.57182246533455, 31.53513907910525], [74.57787021813613, 31.51580725959741], [74.59601347833939, 31.505495320053058], [74.6035731704655, 31.49002527754459], [74.6050851088907, 31.464236186350945], [74.58845378711266, 31.419088182673534], [74.55972695883213, 31.40102289189298], [74.54460757547929, 31.388116983811813], [74.52646431527597, 31.363590871721385], [74.52495237685076, 31.34034970287655], [74.52544339499673, 31.322935729900053], [74.52797625370118, 31.23310784035459], [74.50378523979703, 31.20595503070018], [74.49471361014503, 31.18914224102167], [74.4962255485703, 31.16715177823204], [74.52192850000034, 31.143862193485518], [74.54309563705408, 31.128332623951508], [74.58391797183697, 31.12315553629901], [74.6035731704655, 31.133509430116135], [74.62927612189554, 31.142568159892733], [74.67009845667849, 31.142568159892733], [74.69126559373223, 31.12962685269713], [74.69580140810854, 31.09985514529876], [74.6867297784566, 31.08172866644486], [74.62625224504512, 31.068779063902753], [74.57787021813613, 31.068779063902753], [74.55367920513129, 31.04546533685584], [74.53251206807755, 31.014371482158253], [74.50378523979703, 30.980675020935507], [74.46145096658887, 30.948263352771562], [74.42970026145798, 30.914543551443785], [74.40399731002788, 30.884704587346903], [74.38585404982462, 30.8470682933671], [74.37073466647172, 30.832788592619522], [74.34503171504167, 30.81461135602933], [74.32235264046204, 30.793833158673408], [74.30420938025873, 30.78084450487006], [74.28001836725389, 30.765255804012213], [74.25885123020015, 30.736669961549524], [74.25280347649931, 30.722373858966478], [74.24373184684731, 30.674271411496477], [74.23466021719531, 30.66386773031155], [74.20593338891484, 30.65476359016759], [74.16511105323258, 30.650861554117455], [74.1384459971851, 30.650861554117455], [74.09858576701959, 30.650861554117455], [74.07137087716433, 30.644357809065696], [74.04869180168538, 30.622241807213697], [74.04113211045859, 30.598819353930082], [74.03810823360817, 30.564976923746087], [74.01089334375285, 30.544144943334516], [73.96099937841865, 30.535029545477187], [73.93378448856333, 30.5194011593361], [73.9186651052105, 30.494651074687397], [73.90052184500718, 30.476410140016014], [73.87784277042755, 30.46598521414637], [73.8612114486495, 30.45295248816683], [73.8551636949486, 30.439918018401897], [73.83702043564466, 30.412539959151843], [73.81434136016571, 30.399500088958007], [73.8157886328392, 30.385142444867995], [73.81736523701613, 30.369501778484334], [73.84609206529666, 30.355151505237814], [73.87481889357713, 30.34340880727069], [73.89296215378045, 30.326444644604692], [73.89900990658197, 30.285979784039853], [73.90052184500718, 30.258558617586175], [73.90808153713328, 30.24027358465827], [73.89749796905608, 30.19977319187933], [73.88540246165434, 30.18147722679265], [73.84911594214708, 30.156641553664826], [73.82492492824292, 30.135722450530693], [73.77654290223319, 30.101719449093366], [73.75991158045514, 30.08994645206718], [73.72664893689898, 30.07163011553746], [73.70850567669567, 30.066396253684218], [73.6707072187632, 30.058544941995535], [73.64046845205746, 30.05461905232744], [73.60266999322567, 30.048075557241248], [73.57545510337036, 30.034987270246404], [73.56184765844273, 30.033678346578483], [73.51648950838415, 30.025824441244993], [73.48625074167842, 30.00880551076574], [73.46205972867358, 29.998330871272742], [73.43635677724353, 29.987855126512954], [73.40460607211259, 29.97999759241503], [73.37890312068254, 29.977378275587], [73.36075986047922, 29.969519913213503], [73.34412853870117, 29.960351037170653], [73.32447334007264, 29.94856123990934], [73.32144946412154, 29.943320880454337], [73.31388977199543, 29.901388073600742], [73.30633008076865, 29.860748829994577], [73.28818682056539, 29.825339870738503], [73.2836510052897, 29.788606212806542], [73.27760325248818, 29.761047118229953], [73.26399580666123, 29.737419002584943], [73.25643611543444, 29.705906187920277], [73.24887642330833, 29.682265085165625], [73.2352689783807, 29.657304554661494], [73.2261973487287, 29.629709394572956], [73.2246854103035, 29.60867943560754], [73.20503021167497, 29.586330297105576], [73.20049439729866, 29.557400533208067], [73.19444664359776, 29.53109355842105], [73.17781532181971, 29.504779737994568], [73.1611840000416, 29.482407612821135], [73.14455267916287, 29.456081141631444], [73.12489748053434, 29.435015044308898], [73.11280197403192, 29.412627525439973], [73.09012289855298, 29.373108108652332], [73.07802739205056, 29.345435383835934], [73.06593188554814, 29.317755143385227], [73.04325281006919, 29.278198911950255], [73.01906179706435, 29.261053120405222], [72.99789466001062, 29.23730804792814], [72.96916783173009, 29.201680109149777], [72.94648875715046, 29.175281057275015], [72.92229774414562, 29.144913749569923], [72.90566642236757, 29.109253717585034], [72.89508285339105, 29.06829547185862], [72.87240377881142, 29.0378965745673], [72.84972470423179, 29.024676868742574], [72.81192624539995, 29.014099885501366], [72.75749646568937, 28.999554764241054], [72.71818606843237, 28.98236243727672], [72.67433985679901, 28.96516725226695], [72.64561302851848, 28.944000025281014], [72.6153742618128, 28.929445048350374], [72.53977734594781, 28.88709167623989], [72.52092832837968, 28.87733868333362], [72.50651470239166, 28.869880682047892], [72.48081175006229, 28.853991079724608], [72.44754910740545, 28.84207228460832], [72.41882227912492, 28.823529221796207], [72.36590443694024, 28.807632540009763], [72.30996271880451, 28.7758318982236], [72.27670007524836, 28.740044586988176], [72.24192549416625, 28.704245012597312], [72.22227029553778, 28.66975976859851], [72.214710604311, 28.628627908751014], [72.20412703533447, 28.583497006581638], [72.18598377513115, 28.5463158316104], [72.17237633020352, 28.519749808906624], [72.1602808237011, 28.447988118456976], [72.15272113247437, 28.41075916340469], [72.13004205699536, 28.378838212113862], [72.09073166063769, 28.333600415626734], [72.0438615721539, 28.301656251035183], [72.00303923737096, 28.27103409165005], [71.96524077853917, 28.25239020584337], [71.93046619745712, 28.221753886632598], [71.89569161547576, 28.185778290635653], [71.87906029369765, 28.14979058616666], [71.8624289719196, 28.11379078311819], [71.84579765104081, 28.084448671069367], [71.83521408206428, 28.024405741331975], [71.82765439083755, 27.976347268012034], [71.7959036857066, 27.956316579946247], [71.76112910372524, 27.94563202699652], [71.72333064579271, 27.930939040104647], [71.68250831100983, 27.90956385658677], [71.65529342025519, 27.88952078485636], [71.57667262753978, 27.881502516727835], [71.44815786859084, 27.87882962908418], [71.34383412444532, 27.882838936267945], [71.30452372718833, 27.868137417507853], [71.2818446526087, 27.860117566572512], [71.18961641406634, 27.85744415102681], [71.16693733948671, 27.850760323929876], [71.13216275750528, 27.836054454249734], [71.10948368202634, 27.813323279245992], [71.07924491532066, 27.80931140179979], [71.06599275386253, 27.80657624239973], [71.0338867661614, 27.799949777660174], [71.00515993698156, 27.781224110204562], [70.97189729432472, 27.761157316157266], [70.92805108269135, 27.747777397009315], [70.90839588406283, 27.73841047676217], [70.89176456228478, 27.719674218890134], [70.86152579557904, 27.708966339325173], [70.74359460560663, 27.71030488216462], [70.70277227082369, 27.711643407916995], [70.67555738096843, 27.721012629529298], [70.65741412076511, 27.741086821399733], [70.64531861426269, 27.766508822823937], [70.6392708605618, 27.781224110204562], [70.63171116933506, 27.799949777660174], [70.61054403228133, 27.824020895747765], [70.60298434105454, 27.838728396798103], [70.60298434105454, 27.872147120393322], [70.59996046420412, 27.90555553865721], [70.59391271050322, 27.932274848105806], [70.58030526557559, 27.949638858346702], [70.55006649886991, 27.972341427714753], [70.52133967058938, 27.992369139923937], [70.49866059600976, 28.00838863133032], [70.48354121265692, 28.020401687088224], [70.46237407560318, 28.02974424829847], [70.44120693944876, 28.032413401957], [70.39584878939019, 28.031078833221613], [70.37619359076166, 28.020401687088224], [70.36258614583403, 28.015062716970874], [70.32176381105108, 28.00438398173543], [70.27640566099251, 27.989698993413867], [70.24767883271204, 27.961658460269803], [70.21895200443151, 27.932274848105806], [70.19627292895257, 27.912235985202585], [70.15393865574441, 27.877493160081315], [70.12521182746394, 27.852097122084558], [70.11141199147028, 27.833501127874797], [70.093461122333, 27.80931140179979], [70.06927010932816, 27.77453558954585], [70.04356715789805, 27.74510121604834], [70.03298358892152, 27.71030488216462], [70.01484032961758, 27.66478523095367], [70.00274482221585, 27.629963288874706], [69.98308962448664, 27.596470200339525], [69.96041054900769, 27.56966835920747], [69.93621953600285, 27.548222171516045], [69.89690913964512, 27.49727069428718], [69.85155098958654, 27.446295622445064], [69.82735997568238, 27.41677296609953], [69.79863314740192, 27.387242416404433], [69.73966755241565, 27.356361135358156], [69.7167740497826, 27.33369876118894], [69.68674971113035, 27.303977542629525], [69.64743931387329, 27.273073057275838], [69.59300953416272, 27.23006121325443], [69.56125882903177, 27.185687840621426], [69.5219484326741, 27.148023858314446], [69.49775741966926, 27.102271949091232], [69.49624548124405, 27.060540671314982], [69.49300147194043, 27.051872641209457], [69.48263803631636, 27.024181417338582], [69.46600671453831, 26.99858821827172], [69.45542314556178, 26.91907748253982], [69.45542314556178, 26.821971488493432], [69.45693508398699, 26.75988793318163], [69.48566191226752, 26.73423481768276], [69.53404393917651, 26.712627705304385], [69.56428270588225, 26.705874641201774], [69.59452147258793, 26.68426214728032], [69.63383186894566, 26.672103317714004], [69.6549990059994, 26.66399671097946], [69.68826164955556, 26.638321991966393], [69.71094072413518, 26.618048398814608], [69.73361979961413, 26.60047504258921], [69.76990631912139, 26.580194739595584], [69.82282416130607, 26.57749042784104], [69.85608680396291, 26.57749042784104], [69.91958821422475, 26.573433839699987], [69.94377922722958, 26.58289898749831], [69.96948217955901, 26.596419269233934], [70.01181645276716, 26.60453067205293], [70.03751940419721, 26.597771210173278], [70.04961491069963, 26.589659328015614], [70.07531786212968, 26.573433839699987], [70.10555662883542, 26.566672541404728], [70.12823570431436, 26.546386251624256], [70.13730733396636, 26.52339078475694], [70.14486702609241, 26.32842113942411], [70.13428345711588, 26.305382152564334], [70.11916407376305, 26.274204468461505], [70.11916407376305, 26.248442670792656], [70.12521182746394, 26.215893287645144], [70.11765213623715, 26.184691581751167], [70.10404469130953, 26.156195769519172], [70.09039385049584, 26.139040262598087], [70.08892530795663, 26.137194692780895], [70.06019847877684, 26.089678474681932], [70.03751940419721, 26.047576560210132], [70.04356715789805, 26.00545951914154], [70.05868654125095, 25.986433966454456], [70.06171041720205, 25.929338835418946], [70.07682980055489, 25.9035009901786], [70.08892530795663, 25.883098694149453], [70.12823570431436, 25.847726362481694], [70.14789090294289, 25.825953514043476], [70.16905803909731, 25.805537830706385], [70.2008087442282, 25.78648001843817], [70.21723891194631, 25.7685690378309], [70.22953557250872, 25.755164106738164], [70.24163107901114, 25.73746015456254], [70.24760587880832, 25.70112563823767], [70.24767883271204, 25.70068198198794], [70.27640566099251, 25.692507511512474], [70.42911143204702, 25.687057551564806], [70.50924416408697, 25.691145044907955], [70.54553068449354, 25.69523239705751], [70.56216200537233, 25.707493612640178], [70.57879332715038, 25.710218155543487], [70.61054403228133, 25.707493612640178], [70.62566341563416, 25.69523239705751], [70.63624698371137, 25.684332478960812], [70.64078279898706, 25.654352561421604], [70.64229473741227, 25.606641710246777], [70.64078279898706, 25.475679959862305], [70.64229473741227, 25.411511174401255], [70.64985442953832, 25.380096975794856], [70.68160513376995, 25.35140730840061], [70.7042842092489, 25.33227708092261], [70.71637971575132, 25.304942939165358], [70.71789165417658, 25.281704068987665], [70.74208266718142, 25.254358522028213], [70.76778561951079, 25.22837454864657], [70.80256020059284, 25.199648959631816], [70.83128702887336, 25.175021629744492], [70.86908548770515, 25.146283456516358], [70.8857168094832, 25.118907475599542], [70.89176456228478, 25.05181040762426], [70.89327650070999, 25.02030318854139], [70.9038600687872, 25.00249118192255], [70.91444363776372, 24.976453603551022], [70.91897945214004, 24.939443352828505], [70.93561077391814, 24.91339243481309], [70.95375403412146, 24.880478147248766], [70.97933603033357, 24.841902416063704], [71.00062412260525, 24.81116491862616], [71.0228798548215, 24.777784144622615], [71.02771805724262, 24.760211709303007], [71.0306209788751, 24.73912150565303], [71.05771491351248, 24.708358545710382], [71.0664236784101, 24.665277632856544], [71.06255311683293, 24.649448252734715], [71.02191221397754, 24.622181838920767], [71.00546232502631, 24.60986602459741], [70.99288299855158, 24.552669579537508], [70.99608830732956, 24.523346284903198], [70.99608830732956, 24.49995976223329], [70.99911218418004, 24.468312248911218], [71.0202793203344, 24.42839752252769], [71.05656584074103, 24.424267691800594], [71.1004120523744, 24.42013772527588], [71.10797174450045, 24.409123820807736], [71.10645980607524, 24.389847177405386], [71.08831654587198, 24.374699179423658], [71.07470910094429, 24.347152716724565], [71.05505390231582, 24.337510038257733], [70.99608830732956, 24.336132453150242], [70.97492117117514, 24.336132453150242], [70.94014658919377, 24.320978024116584], [70.92653914426614, 24.307199699006958], [70.9114197609133, 24.287907529708775], [70.9008361928361, 24.261720610817576], [70.89327650070999, 24.24655729648208], [70.87362130208146, 24.230013437370303], [70.85094222750183, 24.2134674288788], [70.77383337231231, 24.20105651124902], [70.68916482589606, 24.209330590634295], [70.62112760035853, 24.210709551704497], [70.5818172040008, 24.23414960382121], [70.57123363592359, 24.256206888037525], [70.57425751277407, 24.2865294059074], [70.5818172040008, 24.316844684234866], [70.58484108085128, 24.34302023029943], [70.58030526557559, 24.378830631628375], [70.55762619099596, 24.392601164112477], [70.50773222566175, 24.389847177405386], [70.45330244595118, 24.36368131434125], [70.43515918574786, 24.356794660445246], [70.4064323574674, 24.347152716724565], [70.38828909726408, 24.340265164405878], [70.3429309472055, 24.33062196163428], [70.30059667399735, 24.32786662594407], [70.27640566099251, 24.31408904907039], [70.22953557250872, 24.304443855199793], [70.2068564979291, 24.29893198592248], [70.18568936087536, 24.2865294059074], [70.15091477889399, 24.28239494277244], [70.12823570431436, 24.2782603456385], [70.11462825938673, 24.26034220283043], [70.09950887603384, 24.23552829599413], [70.09194918390779, 24.20657262352779], [70.0783417389801, 24.176231052621006], [70.06473429405247, 24.161057560657923], [70.03147165049631, 24.154159922442545], [69.72757204591323, 24.15829855033786], [69.69582134078229, 24.169334234587325], [69.68070195742945, 24.196919270108253], [69.64139156107171, 24.22587713692036], [69.62022442401803, 24.257585340990772], [69.60056922628883, 24.271369051240754], [69.58242596608551, 24.26999074757498], [69.55521107623025, 24.25344993626561], [69.53404393917651, 24.239664283479954], [69.50229323404557, 24.238285636273133], [69.47205446733983, 24.236906973777877], [69.44635151590978, 24.25344993626561], [69.39343367462442, 24.256206888037525], [69.30271737450727, 24.257585340990772], [69.25433534759827, 24.25344993626561], [69.24223984109585, 24.238285636273133], [69.2089771975397, 24.22863468584211], [69.16966680118196, 24.232770896359852], [69.13338028077538, 24.236906973777877], [69.10314151406965, 24.24655729648208], [69.0834863163405, 24.256206888037525], [69.08044569231492, 24.25499400926617], [69.05929530243634, 24.24655729648208], [69.04266398065823, 24.231392174509324], [69.02452072135424, 24.221740701572173], [69.00788939957619, 24.21760413222495], [68.9700909407444, 24.21898300336295], [68.94892380458998, 24.242421533826757], [68.94136411246387, 24.26309900441555], [68.92775666753624, 24.271369051240754], [68.90810146980704, 24.26447738272509], [68.8960059624053, 24.250692925138424], [68.88844627117851, 24.22863468584211], [68.8778627031013, 24.2134674288788], [68.85971944289804, 24.209330590634295], [68.83704036741909, 24.21898300336295], [68.83704036741909, 24.239664283479954], [68.8385523058443, 24.26034220283043], [68.82040904564099, 24.275503872305933], [68.79017027983463, 24.276882116616434], [68.7622662116164, 24.276882116616434], [68.75993151312889, 24.276882116616434], [68.75085988257757, 24.23414960382121]]]}, "properties": {"shapeName": "Pakistan", "shapeGroup": "PAK", "shapeType": "ADM2-dissolved", "source": "geoBoundaries ADM2 dissolved union"}}]}